 HYPOINVERSE 2000
 6/2014 VERSION 1.40 (geoid depth possible)                            
 RUN ON Wed Nov 26 11:03:21 2025      RUN LABEL= 
 PROCESSING DOMAIN=NC  PROCESSING VERSION=01


 TEST PARAMETERS:
   -ITERATION AND CONVERGENCE-     -WEIGHTING AND ERRORS-     -MISCELLANEOUS-
       20=ITRLIM   0.900=DAMP    50.000=DISCUT   0.160=RMSCUT       4=MINSTA
    0.040=DQUIT    0.001=DRQT     1.000=DISW1    1.500=RMSW1        0=NET
    7.000=DXFIX    0.012=EIGTOL   3.000=DISW2    3.000=RMSW2 
   30.000=DZMAX    0.020=RBACK        4=ITRDIS       4=ITRRES   7.000=ZTR
    0.500=DZAIR    0.600=BACFAC   1.000=SWT      0.150=RDERR 
                                                 1.000=ERCOF

      ------DURATION MAG CONSTANTS------       -DELAYS & MISC-    -STATIONS-
   -5.200=FMA1    -0.905=FMA2   -1.0300=DMA0         F=LMULT        F=ATTEN
    3.890=FMB1     2.026=FMB2    2.1000=DMA1         T=CODAWT       5=SITE-LET
    0.013=FMZ1     0.013=FMZ2    0.0000=DMA2         F=LJUNK        1=NET-LET
    0.004=FMD1     0.004=FMD2    0.0000=DMZ                         3=COMP-LET
    0.000=FMF1     0.000=FMF2    1.0000=DMGN  
    0.000=FMGN   210.000=FMBRK   0.0027=DMLIN 
   0.0000=DCOF1    0.000=DBRK1        1=LOGA0 
   0.0000=DCOF2    0.000=DBRK2 
   0.0000=ZCOF     0.000=ZBRK  

    --- MAGNITUDE LABELS & COMPONENTS ---
    FMAG1: LABEL=   ALL COMPS=
    FMAG2: LABEL=    NO COMPS=
    XMAG1: LABEL=   ALL  TYPE=ALL  COMPS=
    XMAG2: LABEL=    NO  TYPE=ALL  COMPS=
    FMAG1 MAGSEL=1  FMAG2 MAGSEL=1

 INPUT FILES:
 COMMANDS:    hypinst                                                     
                                                                          
 STATIONS:    /workspace/data/station/stations_hypoinverse.sta            STATION FORMAT CODE= 3
 DELAYS:                                                                   
 ATTENUATIONS:                                                             
 CAL FACTORS:                                                              
 FMAG CORRECT:                                                             
 XMAG CORRECT:                                                             

 PHASES:       hypoinverse_input.arc                                       
        PHASE FORMAT CODE= 3, TERMINATOR FORMAT CODE=1
 HOMOGENEOUS LAYER CRUST 1:  /workspace/data/velocity/jma_crh/JMA2001A_P.crh             
 HOMOGENEOUS LAYER CRUST 2:  /workspace/data/velocity/jma_crh/JMA2001A_S.crh             

 OUTPUT FILES: (T IF APPENDED TO)
 (F) PRINTOUT:    hypoinverse_run.prt                                         
 (F) SUMMARY:     hypoinverse_run.sum                                         FORMAT CODE=1
 (F) ARCHIVE:     hypoinverse_run_out.arc                                     ARCHIVE FORMAT CODE= 1

1 15 FEB 2020,  0:27  SEQUENCE NO.    1, ID NO.   3166229
                                                        ADJUSTMENTS (KM)
  I ORIGIN   LAT N     LON W     Z   NWR  RMS    DT    DLAT   DLON    DZ    RR NF MOD
  1 11.16  35 36.98  139E48.45 10.00  53 2.65 -1.459 -8.079  0.550  0.000 8.098 3 JMA
  2  9.70  35 32.62  139E48.09 10.00  53 1.14 -0.229 -1.799  0.077  0.000 1.801 3 JMA
 FREE DEPTH
  3  9.47  35 31.65  139E48.03 10.00  53 1.06 -0.070  0.310 -0.288 14.66714.673 4 JMA
 BEGIN MAIN DISTANCE WEIGHTING
 BEGIN RESIDUAL WEIGHTING
  4  9.40  35 31.82  139E48.23 24.67  51 0.74 -0.510 -1.655 -0.562  1.319 2.190 4 JMA
  5  8.89  35 30.92  139E48.60 25.99  49 0.35 -0.036 -0.929  0.140 -0.803 1.236 4 JMA
  6  8.85  35 30.42  139E48.51 25.18  49 0.29 -0.016 -0.103  0.042 -0.121 0.164 4 JMA
  7  8.84  35 30.37  139E48.48 25.06  49 0.29 -0.013 -0.031  0.019  0.062 0.072 4 JMA
  8  8.83  35 30.35  139E48.47 25.12  49 0.29 -0.006 -0.001  0.020  0.035 0.040 4 JMA
  9  8.82  35 30.35  139E48.45 25.16  49 0.29 -0.004 -0.004  0.009  0.019 0.021 4 JMA
 10  8.82  35 30.35  139E48.45 25.18  49 0.29 -0.001 -0.004  0.009 -0.001 0.009 4 JMA

              EIGENVALUES
     ( 7.413  0.929  0.892  0.359)
      EIGENVECTORS OF ADJUSTMENT                COVARIANCE             ERRORS
 OT  (-0.997 -0.004 -0.013 -0.076) (   0.007  -0.001  -0.005  -0.063)   0.082
 LAT (-0.011  0.683  0.731 -0.012) (  -0.001   0.129   0.005  -0.009)   0.359
 LON (-0.011 -0.729  0.682  0.060) (  -0.005   0.005   0.131   0.042)   0.361
 Z   (-0.076  0.052 -0.034  0.995) (  -0.063  -0.009   0.042   0.818)   0.904
 ERROR ELLIPSE: <SERR AZ DIP>-<   0.91 259 86>-<   0.37 137  1>-<   0.35  46  2>
 ------------------------------------------------------------------------------------
 YEAR MO DA  --ORIGIN--  --LAT N-  --LON W--  DEPTH-M RMS   ERH   ERZ  XMAG1 FMAG1 PMAG GEOID-DEP
 2020-02-15  0027  8.82  35 30.35  139E48.45  25.18  0.29  0.37  0.90                      25.18
                                                                                          SOURCE
 NSTA NPHS  DMIN MODEL GAP ITR NFM NWR NWS NVR REMRKS-AVH  N.XMG-XMMAD-T   N.FMG-FMMAD-T  L F X
   53   53  11.7  JMAS  31  10   0  49  17  53                                                 

 XMAG2-N.XMG2-XMMAD-T-S  FMAG2-N.FMG2-FMMAD-T-S  PREF.MAG-N.PMAG-PRMAD-T DEPDAT NS ZT TYP
                                                                              0  0  M CRH
 REGION=                          

 STA NET COM L CR DIST AZM  AN P/S WT   SEC (TOBS -TCAL -DLY  =RES)  WT   SR  INFO  CAL  DUR-W-FMAG-T -AMP-U-PER-W-XMAG-T DE
 N.KOTH  HHZ   Z  11.7   2 151  P  1  13.16  4.34  4.57 0.00 -0.23  1.08     0.056                                           
        S                       S     16.46  7.64  7.81 0.00 -0.17  1.44S    0.436                                           
 N.FUTH  HHZ   Z  18.4 166 138  P  1  13.44  4.62  5.12 0.00 -0.50  1.08     0.041                                           
        S                       S  1  17.28  8.46  8.76 0.00 -0.30  1.08S    0.176                                           
 N.YFTH  HHZ   Z  22.8 229 131  P  1  14.94  6.12  5.58 0.00  0.54* 1.04     0.037                                           
 N.YKHH  HHZ   Z  26.1 269 127  P  1  14.55  5.73  5.95 0.00 -0.22  1.08     0.044                                           
        S                       S  1  18.83 10.01 10.18 0.00 -0.17  1.08S    0.126                                           
 N.HYMH  HHZ   Z  32.4 214 119  P  1  15.41  6.59  6.72 0.00 -0.13  1.08     0.043                                           
        S                       S     20.47 11.65 11.49 0.00  0.16  1.44S    0.181                                           
 YOKOSK  HHZ   Z  33.6 204 118  P  1  15.98  7.16  6.87 0.00  0.29  1.08     0.043                                           
        S                       S  1  22.54 13.72 11.76 0.00  1.96* 0.00S    0.000                                           
 N.YSKH  HHZ   Z  34.2 198 117  P  1  15.95  7.13  6.95 0.00  0.18  1.08     0.043                                           
        S                       S  1  22.72 13.90 11.90 0.00  2.00* 0.00S    0.000                                           
 N.FCHH  HHZ   Z  34.7 299 117  P  1  15.52  6.70  7.01 0.00 -0.31  1.08     0.054                                           
        S                       S  1  20.89 12.07 12.00 0.00  0.07  1.08S    0.114                                           
 N.ICHH  HHZ   Z  35.1 108 116  P     16.34  7.52  7.07 0.00  0.45  1.44     0.073                                           
 N.SHMH SHHZ   Z  37.6  30 115  S     21.62 12.80 12.66 0.00  0.14  1.44S    0.196                                           
 N.CBAH  HHZ   Z  39.6  83 112  P  1  16.29  7.47  7.67 0.00 -0.20  1.08     0.045                                           
        S                       S  1  22.28 13.46 13.13 0.00  0.33  1.08S    0.103                                           
 N.YROH  HHZ   Z  39.7 127 112  P  1  16.20  7.38  7.68 0.00 -0.30  1.08     0.044                                           
        S                       S     22.00 13.18 13.14 0.00  0.04  1.44S    0.178                                           
 CHONAN  HHZ   Z  41.1 109 111  P  1  17.38  8.56  7.88 0.00  0.68* 0.69     0.018                                           
        S                       S  1  25.09 16.27 13.48 0.00  2.79* 0.00S    0.000                                           
 N.TKRH  HHZ   Z  41.1 324 111  P  1  16.79  7.97  7.88 0.00  0.09  1.08     0.061                                           
        S                       S  1  22.74 13.92 13.48 0.00  0.44  1.08S    0.114                                           
 N.ATGH  HHZ   Z  42.7 255 110  P  1  16.88  8.06  8.09 0.00 -0.03  1.08     0.060                                           
        S                       S  1  23.13 14.31 13.85 0.00  0.46  1.08S    0.104                                           
 N.KMWH  HHZ   Z  43.2 160 109  P     16.63  7.81  8.16 0.00 -0.35  1.44     0.087                                           
        S                       S     22.82 14.00 13.97 0.00  0.03  1.44S    0.169                                           
 N.IWTH  HHZ   Z  47.4 353 107  P  1  17.50  8.68  8.74 0.00 -0.06  1.08     0.064                                           
 N.KMSH  HHZ   Z  53.4 150 103  P     18.96 10.14  9.59 0.00  0.55* 1.37     0.093                                           
 N.NRTH  HHZ   Z  57.2  50 102  P  1  18.83 10.01 10.13 0.00 -0.12  1.07     0.061                                           
        S                       S  1  25.91 17.09 17.36 0.00 -0.27  1.07S    0.101                                           
 N.ST6H  HHZ   Z  59.9 221 101  P     19.11 10.29 10.51 0.00 -0.22  1.41     0.127                                           
 N.CKRH  HHZ   Z  60.7 167 100  P     19.41 10.59 10.63 0.00 -0.04  1.40     0.112                                           
 N.HSNH  HHZ   Z  64.5  81  99  P  1  19.61 10.79 11.18 0.00 -0.39  1.03     0.058                                           
        S                       S  1  27.79 18.97 19.17 0.00 -0.20  1.03S    0.094                                           
 N.EDSH  HHZ   Z  68.5  43  98  P  1  20.47 11.65 11.75 0.00 -0.10  0.99     0.060                                           
        S                       S  1  29.16 20.34 20.16 0.00  0.18  0.99S    0.095                                           
 ODAWA2  HHZ   Z  70.8 249  98  P  1  20.10 11.28 12.09 0.00 -0.81* 0.25     0.004                                           
        S                       S  1  28.97 20.15 20.74 0.00 -0.59* 0.87S    0.088                                           
 N.NGRH  HHZ   Z  74.7 308  97  P  1  21.31 12.49 12.66 0.00 -0.17  0.93     0.069                                           
        S                       S  1  31.28 22.46 21.73 0.00  0.73* 0.44S    0.024                                           
 E.TSK   HHZ   Z  83.0  18  96  P  1  22.69 13.87 13.86 0.00  0.01  0.82     0.047                                           
 N.TBYH  HHZ   Z  85.3 344  95  P  1  23.08 14.26 14.19 0.00  0.07  0.78     0.048                                           
        S                       S  1  33.45 24.63 24.38 0.00  0.25  0.78S    0.076                                           
 N.CH2H  HHZ   Z  95.4  74  95  P     24.29 15.47 15.67 0.00 -0.20  0.82     0.044                                           
 RYOKAM  HHZ   Z 100.1 306  94  P     24.74 15.92 16.36 0.00 -0.44  0.72     0.045                                           
 ASHIKA  HHZ   Z 107.3 343  94  P  1  26.22 17.40 17.41 0.00 -0.01  0.42     0.014                                           
 N.KWKH  HHZ   Z 122.2 296  93  P  1  28.58 19.76 19.58 0.00  0.18  0.19     0.003                                           
 N.MOTH  HHZ   Z 122.2  17  93  P  1  28.06 19.24 19.58 0.00 -0.34  0.19     0.002                                           
 N.ASOH  HHZ   Z 129.0 347  93  P  1  29.41 20.59 20.58 0.00  0.01  0.11     0.001                                           
 E.OKY   HHZ   Z 129.6 257  93  P  1  28.34 19.52 20.67 0.00 -1.15* 0.00     0.000                                           
 *** SKIP BAD INPUT ARCHIVE CARD:
 202002150101012535 5203139E307310.00
1 15 FEB 2020,  1:01  SEQUENCE NO.    2, ID NO.   3166244
                                                        ADJUSTMENTS (KM)
  I ORIGIN   LAT N     LON W     Z   NWR  RMS    DT    DLAT   DLON    DZ    RR NF MOD
  1  2.25  35 56.04  139E43.79 10.00  58 5.68 -3.020  0.913  4.334  0.000 4.429 3 JMA
 FREE DEPTH
 DEPTH ADJUSTMENT DAMPED
  2 -0.77  35 56.53  139E40.90 10.00  58 4.18 -0.651 -0.949 -2.586 17.92918.139 4 JMA
 DEPTH ADJUSTMENT DAMPED
  3 -1.42  35 56.02  139E42.63 27.93  58 3.24 -3.491 -1.610  2.637 17.57117.840 4 JMA
 BEGIN MAIN DISTANCE WEIGHTING
 BEGIN RESIDUAL WEIGHTING
  4 -4.91  35 55.15  139E40.87 45.50  56 2.63 -1.277 -1.011  2.811 29.14429.297 4 JMA
  5 -6.19  35 54.61  139E39.00 74.64  48 0.34 -0.492  0.023  1.289  2.329 2.662 4 JMA
  6 -6.68  35 54.62  139E38.14 76.97  48 0.22 -0.053 -0.015  0.349  0.163 0.385 4 JMA
  7 -6.73  35 54.61  139E37.90 77.13  48 0.21 -0.001 -0.039  0.105 -0.087 0.142 4 JMA
  8 -6.73  35 54.59  139E37.83 77.05  48 0.21  0.001 -0.032  0.033 -0.033 0.056 4 JMA
  9 -6.73  35 54.57  139E37.81 77.01  48 0.21  0.003 -0.014  0.001 -0.027 0.030 4 JMA

              EIGENVALUES
     ( 7.683  0.517  0.502  0.345)
      EIGENVECTORS OF ADJUSTMENT                COVARIANCE             ERRORS
 OT  (-0.990 -0.027  0.002 -0.139) (   0.012   0.001   0.000  -0.077)   0.110
 LAT ( 0.005 -0.143  0.990  0.003) (   0.001   0.261  -0.002   0.001)   0.511
 LON ( 0.015 -0.986 -0.142  0.081) (   0.000  -0.002   0.249   0.025)   0.499
 Z   (-0.141  0.078  0.009  0.987) (  -0.077   0.001   0.025   0.541)   0.736
 ERROR ELLIPSE: <SERR AZ DIP>-<   0.74 273 85>-<   0.51 189  0>-<   0.50  99  4>
 ------------------------------------------------------------------------------------
 YEAR MO DA  --ORIGIN--  --LAT N-  --LON W--  DEPTH-M RMS   ERH   ERZ  XMAG1 FMAG1 PMAG GEOID-DEP
 2020-02-15  0100 53.27  35 54.57  139E37.81  77.01  0.21  0.51  0.73                      77.01
                                                                                          SOURCE
 NSTA NPHS  DMIN MODEL GAP ITR NFM NWR NWS NVR REMRKS-AVH  N.XMG-XMMAD-T   N.FMG-FMMAD-T  L F X
   58   58   9.7  JMAS  60   9   0  48  22  58                                                 

 XMAG2-N.XMG2-XMMAD-T-S  FMAG2-N.FMG2-FMMAD-T-S  PREF.MAG-N.PMAG-PRMAD-T DEPDAT NS ZT TYP
                                                                              0  0  M CRH
 REGION=                          

 STA NET COM L CR DIST AZM  AN P/S WT   SEC (TOBS -TCAL -DLY  =RES)  WT   SR  INFO  CAL  DUR-W-FMAG-T -AMP-U-PER-W-XMAG-T DE
 N.IWTH  HHZ   Z   9.7  77 171  P     64.25 10.98 11.09 0.00 -0.11  1.43     0.048                                           
        S                       S     72.64 19.37 19.30 0.00  0.07  1.43S    0.157                                           
 N.TKRH  HHZ   Z  14.6 216 167  P     64.94 11.67 11.20 0.00  0.47  1.10     0.028                                           
        S                       S     73.84 20.57 19.49 0.00  1.08* 0.00S    0.000                                           
 N.HDKH  HHZ   Z  22.2 268 161  P     64.68 11.41 11.45 0.00 -0.04  1.43     0.051                                           
        S                       S     73.32 20.05 19.92 0.00  0.13  1.43S    0.132                                           
 N.YMIH  HHZ   Z  23.5 312 160  P     64.81 11.54 11.50 0.00  0.04  1.43     0.052                                           
        S                       S     73.38 20.11 20.01 0.00  0.10  1.43S    0.134                                           
 N.FCHH  HHZ   Z  31.8 208 154  P     65.16 11.89 11.90 0.00 -0.01  1.43     0.074                                           
        S                       S  1  73.61 20.34 20.70 0.00 -0.36  1.07S    0.090                                           
 N.HHNH  HHZ   Z  32.7 262 153  P     65.57 12.30 11.94 0.00  0.36  1.43     0.066                                           
        S                       S     74.64 21.37 20.78 0.00  0.59* 0.38S    0.009                                           
 N.KOTH  HHZ   Z  37.0 153 150  P     65.44 12.17 12.19 0.00 -0.02  1.43     0.094                                           
        S                       S     74.19 20.92 21.22 0.00 -0.30  1.43S    0.198                                           
 N.TBYH  HHZ   Z  37.9 349 150  P  1  65.31 12.04 12.25 0.00 -0.21  1.07     0.045                                           
        S                       S  1  74.24 20.97 21.32 0.00 -0.35  1.07S    0.091                                           
 N.KWTH  HHZ   Z  38.1 307 149  P  1  65.46 12.19 12.26 0.00 -0.07  1.07     0.042                                           
        S                       S  1  74.61 21.34 21.34 0.00  0.00  1.07S    0.079                                           
 N.ISGH  HHZ   Z  39.3  55 149  P  1  65.56 12.29 12.34 0.00 -0.05  1.07     0.053                                           
        S                       S     74.86 21.59 21.47 0.00  0.12  1.43S    0.200                                           
 E2DDR   HHZ   Z  41.3 285 147  P  1  65.86 12.59 12.46 0.00  0.13  1.07     0.045                                           
        S                       S  1  75.17 21.90 21.69 0.00  0.21  1.07S    0.080                                           
 N.HOJH  HHZ   Z  42.4 232 146  P  1  65.96 12.69 12.54 0.00  0.15  1.07     0.051                                           
        S                       S  1  74.81 21.54 21.82 0.00 -0.28  1.07S    0.091                                           
 N.NGRH  HHZ   Z  43.5 271 146  P  1  66.00 12.73 12.61 0.00  0.12  1.07     0.048                                           
        S                       S  1  75.55 22.28 21.95 0.00  0.33  1.07S    0.082                                           
 E.HCJ   HHZ   Z  44.3 227 145  P  1  66.06 12.79 12.67 0.00  0.12  1.07     0.054                                           
        S                       S  1  75.17 21.90 22.06 0.00 -0.16  1.07S    0.095                                           
 N.YKHH  HHZ   Z  46.6 193 144  P  1  65.98 12.71 12.84 0.00 -0.13  1.07     0.062                                           
        S                       S  1  75.28 22.01 22.34 0.00 -0.33  1.07S    0.111                                           
 E.TSK   HHZ   Z  54.6  51 139  P  1  66.76 13.49 13.45 0.00  0.04  1.07     0.073                                           
        S                       S  1  76.88 23.61 23.41 0.00  0.20  1.07S    0.129                                           
 ASHIKA  HHZ   Z  59.8 345 136  P  1  67.02 13.75 13.88 0.00 -0.13  1.05     0.070                                           
        S                       S     77.21 23.94 24.17 0.00 -0.23  1.39S    0.193                                           
 N.EDSH  HHZ   Z  63.3  85 134  P  1  67.47 14.20 14.19 0.00  0.01  1.03     0.082                                           
        S                       S     78.22 24.95 24.71 0.00  0.24  1.37S    0.243                                           
 RYOKAM  HHZ   Z  67.2 281 132  P  1  67.96 14.69 14.54 0.00  0.15  1.00     0.069                                           
        S                       S  1  78.62 25.35 25.32 0.00  0.03  1.00S    0.094                                           
 N.ASOH  HHZ   Z  81.8 350 125  P  1  68.96 15.69 15.95 0.00 -0.26  0.82     0.063                                           
        S                       S  1  80.68 27.41 27.79 0.00 -0.38  0.82S    0.088                                           
 N.YROH  HHZ   Z  83.8 145 124  P  1  69.31 16.04 16.15 0.00 -0.11  0.80     0.067                                           
        S                       S  1  81.84 28.57 28.14 0.00  0.43  0.72S    0.081                                           
