 HYPOINVERSE 2000
 6/2014 VERSION 1.40 (geoid depth possible)                            
 RUN ON Sat Nov 22 08:34:49 2025      RUN LABEL= 
 PROCESSING DOMAIN=NC  PROCESSING VERSION=01


 TEST PARAMETERS:
   -ITERATION AND CONVERGENCE-     -WEIGHTING AND ERRORS-     -MISCELLANEOUS-
       20=ITRLIM   0.900=DAMP    50.000=DISCUT   0.160=RMSCUT       4=MINSTA
    0.040=DQUIT    0.001=DRQT     1.000=DISW1    1.500=RMSW1        0=NET
    7.000=DXFIX    0.012=EIGTOL   3.000=DISW2    3.000=RMSW2 
   30.000=DZMAX    0.020=RBACK        4=ITRDIS       4=ITRRES   7.000=ZTR
    0.500=DZAIR    0.600=BACFAC   1.000=SWT      0.150=RDERR 
                                                 1.000=ERCOF

      ------DURATION MAG CONSTANTS------       -DELAYS & MISC-    -STATIONS-
   -5.200=FMA1    -0.905=FMA2   -1.0300=DMA0         F=LMULT        F=ATTEN
    3.890=FMB1     2.026=FMB2    2.1000=DMA1         T=CODAWT       5=SITE-LET
    0.013=FMZ1     0.013=FMZ2    0.0000=DMA2         F=LJUNK        1=NET-LET
    0.004=FMD1     0.004=FMD2    0.0000=DMZ                         3=COMP-LET
    0.000=FMF1     0.000=FMF2    1.0000=DMGN  
    0.000=FMGN   210.000=FMBRK   0.0027=DMLIN 
   0.0000=DCOF1    0.000=DBRK1        1=LOGA0 
   0.0000=DCOF2    0.000=DBRK2 
   0.0000=ZCOF     0.000=ZBRK  

    --- MAGNITUDE LABELS & COMPONENTS ---
    FMAG1: LABEL=   ALL COMPS=
    FMAG2: LABEL=    NO COMPS=
    XMAG1: LABEL=   ALL  TYPE=ALL  COMPS=
    XMAG2: LABEL=    NO  TYPE=ALL  COMPS=
    FMAG1 MAGSEL=1  FMAG2 MAGSEL=1

 INPUT FILES:
 COMMANDS:    hypinst                                                     
                                                                          
 STATIONS:    /workspace/data/station/stations_hypoinverse.sta            STATION FORMAT CODE= 3
 DELAYS:                                                                   
 ATTENUATIONS:                                                             
 CAL FACTORS:                                                              
 FMAG CORRECT:                                                             
 XMAG CORRECT:                                                             

 PHASES:       hypoinverse_input.arc                                       
        PHASE FORMAT CODE= 3, TERMINATOR FORMAT CODE=1
 HOMOGENEOUS LAYER CRUST 1:  /workspace/data/velocity/jma_crh/JMA2001A_P.crh             
 HOMOGENEOUS LAYER CRUST 2:  /workspace/data/velocity/jma_crh/JMA2001A_S.crh             

 OUTPUT FILES: (T IF APPENDED TO)
 (F) PRINTOUT:    hypoinverse_run.prt                                         
 (F) SUMMARY:     hypoinverse_run.sum                                         FORMAT CODE=1
 (F) ARCHIVE:     hypoinverse_run_out.arc                                     ARCHIVE FORMAT CODE= 1

1  3 JUN 2002,  0:02  SEQUENCE NO.    1, ID NO.         1
                                                        ADJUSTMENTS (KM)
  I ORIGIN   LAT N     LON W     Z   NWR  RMS    DT    DLAT   DLON    DZ    RR NF MOD
  1 31.03  34 49.30  134E48.18 10.00  37 2.48 -0.847-12.265 -5.209  0.00013.325 3 JMA
  2 30.18  34 42.68  134E51.60 10.00  37 0.54 -0.458 -1.423 -1.027  0.000 1.755 3 JMA
 FREE DEPTH
  3 29.73  34 41.91  134E52.27 10.00  37 0.22 -0.058 -0.106 -0.095  2.313 2.317 4 JMA
 BEGIN MAIN DISTANCE WEIGHTING
 BEGIN RESIDUAL WEIGHTING
  4 29.67  34 41.86  134E52.34 12.31  34 0.14  0.005  0.126 -0.001 -0.258 0.287 4 JMA
  5 29.67  34 41.92  134E52.34 12.05  34 0.13  0.001  0.021 -0.005 -0.065 0.069 4 JMA
  6 29.67  34 41.94  134E52.34 11.99  34 0.13 -0.001 -0.000 -0.010  0.007 0.012 4 JMA
  7 29.67  34 41.94  134E52.35 12.00  34 0.13 -0.001 -0.001 -0.003  0.005 0.006 4 JMA

              EIGENVALUES
     ( 6.212  0.929  0.806  0.226)
      EIGENVECTORS OF ADJUSTMENT                COVARIANCE             ERRORS
 OT  (-0.994 -0.086  0.059  0.045) (   0.003   0.007   0.000  -0.035)   0.057
 LAT ( 0.106 -0.804  0.582  0.052) (   0.007   0.053  -0.006  -0.038)   0.230
 LON ( 0.004 -0.585 -0.811  0.024) (   0.000  -0.006   0.057  -0.018)   0.239
 Z   (-0.040 -0.060  0.014 -0.997) (  -0.035  -0.038  -0.018   0.778)   0.882
 ERROR ELLIPSE: <SERR AZ DIP>-<   0.88 155 86>-<   0.25 236  0>-<   0.21 325  3>
 ------------------------------------------------------------------------------------
 YEAR MO DA  --ORIGIN--  --LAT N-  --LON W--  DEPTH-M RMS   ERH   ERZ  XMAG1 FMAG1 PMAG GEOID-DEP
 2002-06-03  0002 29.67  34 41.94  134E52.35  12.00  0.13  0.25  0.88                      12.00
                                                                                          SOURCE
 NSTA NPHS  DMIN MODEL GAP ITR NFM NWR NWS NVR REMRKS-AVH  N.XMG-XMMAD-T   N.FMG-FMMAD-T  L F X
   37   37  14.3  JMAS 101   7   0  34  19  37                                                 

 XMAG2-N.XMG2-XMMAD-T-S  FMAG2-N.FMG2-FMMAD-T-S  PREF.MAG-N.PMAG-PRMAD-T DEPDAT NS ZT TYP
                                                                              0  0  M CRH
 REGION=                          

 STA NET COM L CR DIST AZM  AN P/S WT   SEC (TOBS -TCAL -DLY  =RES)  WT   SR  INFO  CAL  DUR-W-FMAG-T -AMP-U-PER-W-XMAG-T DE
 N.KKGH  HHZ   Z  14.3 336 124  P     33.03  3.36  3.26 0.00  0.10  1.08     0.097                                           
        S                       S     35.26  5.59  5.54 0.00  0.05  1.08S    0.407                                           
 DP.TOS  HHZ   Z  17.9 157 116  P  1  33.42  3.75  3.76 0.00 -0.01  0.81     0.069                                           
        S                       S     35.82  6.15  6.39 0.00 -0.24  1.08S    0.304                                           
 MIKI    HHZ   Z  20.5  52 112  P     33.97  4.30  4.13 0.00  0.17  1.08     0.061                                           
        S                       S     36.99  7.32  7.03 0.00  0.29  0.98S    0.172                                           
 GS.IKH SHHZ   Z  20.7 173 113  S     36.67  7.00  7.07 0.00 -0.07  1.08S    0.274                                           
 N.TJOH  HHZ   Z  30.2  39 101  P     35.38  5.71  5.64 0.00  0.07  1.08     0.051                                           
        S                       S     39.20  9.53  9.59 0.00 -0.06  1.08S    0.113                                           
 DP.IZT SHHZ   Z  30.7   2 102  S     39.45  9.78  9.71 0.00  0.07  1.08S    0.087                                           
 KASAI   HHZ   Z  32.0 355 100  P     35.59  5.92  5.91 0.00  0.01  1.08     0.036                                           
        S                       S     39.75 10.08 10.05 0.00  0.03  1.08S    0.081                                           
 N.AIOH  HHZ   Z  37.5 287  97  P     36.65  6.98  6.78 0.00  0.20  1.08     0.083                                           
        S                       S     41.05 11.38 11.55 0.00 -0.17  1.08S    0.143                                           
 N.SGUH  HHZ   Z  39.7 311  96  P     36.99  7.32  7.14 0.00  0.18  1.08     0.061                                           
        S                       S     41.76 12.09 12.16 0.00 -0.07  1.08S    0.100                                           
 N.YMSH  HHZ   Z  41.3 334  96  P     37.12  7.45  7.40 0.00  0.05  1.08     0.047                                           
        S                       S     42.05 12.38 12.60 0.00 -0.22  1.08S    0.075                                           
 N.KAMH SHHZ   Z  44.7   3  95  S     43.05 13.38 13.52 0.00 -0.14  1.08S    0.075                                           
 N.KNHH  HHZ   Z  47.6  94  94  P     38.03  8.36  8.40 0.00 -0.04  1.08     0.116                                           
        S                       S     43.52 13.85 14.31 0.00 -0.46  0.01S    0.000                                           
 DP.TNJ  HHZ   Z  48.4  39  94  P     38.30  8.63  8.53 0.00  0.10  1.08     0.068                                           
        S                       S     44.10 14.43 14.54 0.00 -0.11  1.08S    0.112                                           
 N.WKYH SHHZ   Z  49.3 158  94  S     44.52 14.85 14.78 0.00  0.07  1.08S    0.257                                           
 N.TJRH  HHZ   Z  50.4 131  94  P     38.34  8.67  8.85 0.00 -0.18  1.08     0.149                                           
        S                       S     44.15 14.48 15.09 0.00 -0.61* 0.00S    0.000                                           
 N.KMGH  HHZ   Z  54.5 295  93  P     39.30  9.63  9.52 0.00  0.11  1.08     0.085                                           
        S                       S     45.75 16.08 16.23 0.00 -0.15  1.08S    0.133                                           
 N.HNSH  HHZ   Z  54.9 274  93  P     39.48  9.81  9.57 0.00  0.24  1.07     0.110                                           
        S                       S     45.56 15.89 16.32 0.00 -0.43  0.05S    0.000                                           
 N.SSYH SHHZ   Z  55.7  42  93  S     46.17 16.50 16.54 0.00 -0.04  1.07S    0.119                                           
 N.NKOH  HHZ   Z  57.9 315  93  P     39.85 10.18 10.06 0.00  0.12  1.06     0.065                                           
        S                       S     46.78 17.11 17.16 0.00 -0.05  1.06S    0.097                                           
 DP.HMT SHHZ   Z  60.9  14  93  S     47.46 17.79 17.97 0.00 -0.18  1.05S    0.085                                           
 DP.YGI  HHZ   Z  71.4  54  92  P     41.96 12.29 12.22 0.00  0.07  0.96     0.071                                           
        S                       S     50.52 20.85 20.86 0.00 -0.01  0.96S    0.115                                           
 DP.OYT SHHZ   Z  72.0 345  92  S     50.62 20.95 21.04 0.00 -0.09  0.96S    0.062                                           
 *** SKIP BAD INPUT ARCHIVE CARD:
 200206030004119324 1954123E407110.00
1  3 JUN 2002,  0:04  SEQUENCE NO.    2, ID NO.         2
                                                        ADJUSTMENTS (KM)
  I ORIGIN   LAT N     LON W     Z   NWR  RMS    DT    DLAT   DLON    DZ    RR NF MOD
  1 12.93  24 28.33  123E 0.38 10.00  14 6.32 -2.037 43.500 19.449  0.00047.650 3 JMA
 CURB DISTANCE STEP. ALL ADJUSTMENTS DAMPED BY 0.993
  2 10.89  24 51.80  122E48.81 10.00  14 4.18-10.642 26.215 42.576  0.00050.000 3 JMA
  3  0.25  25  5.95  122E23.44 10.00  14 1.40 -2.837 -6.671 20.230  0.00021.301 3 JMA
 BEGIN MAIN DISTANCE WEIGHTING
 BEGIN RESIDUAL WEIGHTING
  4 -2.59  25  2.35  122E11.39 10.00  14 0.85 -1.159  2.108  4.790  0.000 5.233 3 JMA
 FREE DEPTH
  5 -3.74  25  3.49  122E 8.54 10.00  13 0.74  0.177-20.659 16.930 18.13732.285 4 JMA
  6 -3.57  24 52.34  121E58.47 28.14  12 0.41 -0.276-14.761  7.586  7.32218.140 4 JMA
  7 -3.84  24 44.37  121E53.96 35.46  12 0.29 -0.190  7.765 -1.071-14.89216.829 4 JMA
 RMS INCREASE - MOVE HYPO 0.60 BACK
  8 -4.03  24 48.56  121E54.60 20.57  14 1.08  0.114 -4.659  0.643  8.93510.097 4 JMA
 RMS INCREASE - MOVE HYPO 0.60 BACK
  9 -3.92  24 46.05  121E54.22 29.50  13 0.56  0.046 -1.863  0.257  3.574 4.039 4 JMA
 RMS INCREASE - MOVE HYPO 0.60 BACK
 10 -3.87  24 45.04  121E54.07 33.08  12 0.35  0.018 -0.745  0.103  1.430 1.616 4 JMA
 11 -3.86  24 44.64  121E54.00 34.51  12 0.30 -0.021  0.114 -0.353  0.157 0.403 3 JMA
 12 -3.88  24 44.70  121E54.21 34.66  12 0.28 -0.003 -0.038 -0.029  0.008 0.049 3 JMA
 13 -3.88  24 44.68  121E54.23 34.67  12 0.28 -0.001  0.064 -0.006  0.009 0.065 3 JMA

              EIGENVALUES
     ( 3.546  0.177  0.046  0.009)
      EIGENVECTORS OF ADJUSTMENT                COVARIANCE             ERRORS
 OT  (-0.983  0.181  0.008  0.012) (   0.178  -0.283   1.336   4.989)   0.421
 LAT (-0.033 -0.217  0.971 -0.099) (  -0.283  46.585 -23.037 -33.056)   6.825
 LON (-0.162 -0.897 -0.167  0.375) (   1.336 -23.037  65.803 149.802)   8.112
 Z   ( 0.075  0.340  0.173  0.922) (   4.989 -33.056 149.802 375.189)  19.370
 ERROR ELLIPSE: <SERR AZ DIP>-<  20.97 256 67>-<   6.68   9  9>-<   1.77 103 20>
 ------------------------------------------------------------------------------------
 YEAR MO DA  --ORIGIN--  --LAT N-  --LON W--  DEPTH-M RMS   ERH   ERZ  XMAG1 FMAG1 PMAG GEOID-DEP
 2002-06-03  0003 56.12  24 44.68  121E54.23  34.67  0.28  8.14 19.33                      34.67
                                                                                          SOURCE
 NSTA NPHS  DMIN MODEL GAP ITR NFM NWR NWS NVR REMRKS-AVH  N.XMG-XMMAD-T   N.FMG-FMMAD-T  L F X
   14   14 116.3  JMAS 337  13   0  12   4  14      -                                          

 XMAG2-N.XMG2-XMMAD-T-S  FMAG2-N.FMG2-FMMAD-T-S  PREF.MAG-N.PMAG-PRMAD-T DEPDAT NS ZT TYP
                                                                              0  0  M CRH
 REGION=                          

 STA NET COM L CR DIST AZM  AN P/S WT   SEC (TOBS -TCAL -DLY  =RES)  WT   SR  INFO  CAL  DUR-W-FMAG-T -AMP-U-PER-W-XMAG-T DE
 YONAGU  HHZ   Z 116.3 105  65  P     74.93 18.81 18.49 0.00  0.32  1.05     0.188                                           
        S                       S     88.53 32.41 31.97 0.00  0.44  1.05S    0.384                                           
 IRIOMH  HHZ   Z 190.9 101  65  P     84.38 28.26 28.43 0.00 -0.17  1.05     0.193                                           
        S                       S    105.59 49.47 49.32 0.00  0.15  1.05S    0.268                                           
 HATOMA  HHZ   Z 196.7  98  65  P     85.24 29.12 29.20 0.00 -0.08  1.05     0.288                                           
        S                       S    106.53 50.41 50.67 0.00 -0.26  1.05S    0.471                                           
 HATERS  HHZ   Z 207.1 111  65  P     86.62 30.50 30.58 0.00 -0.08  1.05     0.493                                           
 KUROSH  HHZ   Z 220.4 104  65  P     88.51 32.39 32.36 0.00  0.03  1.04     0.170                                           
        S                       S    111.98 55.86 56.19 0.00 -0.33  1.04S    0.301                                           
 ISHIG2  HHZ   Z 230.7  99  65  P     89.39 33.27 33.73 0.00 -0.46  1.02     0.235                                           
        S                       S    113.28 57.16 58.57 0.00 -1.41* 0.00S    0.000                                           
 TARAMA  HHZ   Z 283.8  91  60  P     97.27 41.15 40.73 0.00  0.42  0.91     0.644                                           
 IKEMA   HHZ   Z 338.8  85  60  P    105.21 49.09 47.76 0.00  1.33* 0.00     0.000                                           
 OKIGUS  HHZ   Z 354.4  88  60  P    106.09 49.97 49.76 0.00  0.21  0.64     0.360                                           
 *** SKIP BAD INPUT ARCHIVE CARD:
 200206030009119740 4726141E324210.00
1  3 JUN 2002,  0:09  SEQUENCE NO.    3, ID NO.         3
                                                        ADJUSTMENTS (KM)
  I ORIGIN   LAT N     LON W     Z   NWR  RMS    DT    DLAT   DLON    DZ    RR NF MOD
  1 12.97  41 22.30  141E24.58 10.00  16 6.88 -3.403-13.321-21.219  0.00025.054 3 JMA
  2  9.57  41 15.11  141E39.81 10.00  16 2.99 -3.777 -0.108-17.380  0.00017.380 3 JMA
  3  5.79  41 15.05  141E52.28 10.00  16 1.72 -0.897  0.124 -3.074  0.000 3.076 3 JMA
 FREE DEPTH
 BEGIN MAIN DISTANCE WEIGHTING
 BEGIN RESIDUAL WEIGHTING
 RMS INCREASE - MOVE HYPO 0.60 BACK
  4  4.89  41 15.12  141E54.49 10.00  16 1.87  0.538 -0.074  1.844 -0.000 1.846 3 JMA
 RMS INCREASE - MOVE HYPO 0.60 BACK
  5  5.43  41 15.08  141E53.17 10.00  16 1.77  0.215 -0.030  0.738 -0.000 0.738 3 JMA
 RMS INCREASE - MOVE HYPO 0.60 BACK
  6  5.65  41 15.06  141E52.64 10.00  16 1.75  0.086 -0.012  0.295 -0.000 0.295 3 JMA
 RMS INCREASE - MOVE HYPO 0.60 BACK
  7  5.73  41 15.06  141E52.43 10.00  16 1.75  0.034 -0.005  0.118 -0.000 0.118 3 JMA
 RMS INCREASE - MOVE HYPO 0.60 BACK
  8  5.77  41 15.06  141E52.34 10.00  16 1.74  0.014 -0.002  0.047 -0.000 0.047 3 JMA
 RMS INCREASE - MOVE HYPO 0.60 BACK
  9  5.78  41 15.05  141E52.31 10.00  16 1.74  0.006 -0.001  0.019 -0.000 0.019 3 JMA
 10  5.79  41 15.05  141E52.29 10.00  16 1.74  0.347 -1.452 -0.091  0.000 1.455 3 JMA

              EIGENVALUES
     ( 4.308  0.551  0.258  0.000)
      EIGENVECTORS OF ADJUSTMENT                COVARIANCE             ERRORS
 OT  (-0.980 -0.006  0.197  0.000) (   1.931  -2.514   8.428   0.000)   1.389
 LAT (-0.052 -0.957 -0.287  0.000) (  -2.514  12.947  -9.493   0.000)   3.598
 LON ( 0.190 -0.291  0.938  0.000) (   8.428  -9.493  41.064   0.000)   6.408
 Z   ( 0.000  0.000  0.000  1.000) (   0.000   0.000   0.000********) 145.651
 ERROR ELLIPSE: <SERR AZ DIP>-<  99.00   0 90>-<   6.63 253  0>-<   3.17 343  0>
 ------------------------------------------------------------------------------------
 YEAR MO DA  --ORIGIN--  --LAT N-  --LON W--  DEPTH-M RMS   ERH   ERZ  XMAG1 FMAG1 PMAG GEOID-DEP
 2002-06-03  0009  5.79  41 15.05  141E52.29  10.00  1.74  6.63 99.00                      10.00
                                                                                          SOURCE
 NSTA NPHS  DMIN MODEL GAP ITR NFM NWR NWS NVR REMRKS-AVH  N.XMG-XMMAD-T   N.FMG-FMMAD-T  L F X
   16   16  40.4  JMAS 228  10   0  16  12  16      -                                          

 XMAG2-N.XMG2-XMMAD-T-S  FMAG2-N.FMG2-FMMAD-T-S  PREF.MAG-N.PMAG-PRMAD-T DEPDAT NS ZT TYP
                                                                              0  0  M CRH
 REGION=                          

 STA NET COM L CR DIST AZM  AN P/S WT   SEC (TOBS -TCAL -DLY  =RES)  WT   SR  INFO  CAL  DUR-W-FMAG-T -AMP-U-PER-W-XMAG-T DE
 TU.HD3  HHZ   Z  40.4 289  90  P     14.97  9.18  7.22 0.00  1.96* 1.48     0.374                                           
        S                       S     21.33 15.54 12.30 0.00  3.24* 1.21S    0.254                                           
 HR.TMR  HHZ   Z  44.2 249  90  P     15.07  9.28  7.84 0.00  1.44* 1.48     0.300                                           
 N.RKSH SHHZ   Z  52.4 234  90  S     23.51 17.72 15.62 0.00  2.10* 1.47S    0.301                                           
 OHATA  SHHZ   Z  70.8 283  90  S     25.53 19.74 20.69 0.00 -0.95* 1.32S    0.240                                           
 N.KUCH SHHZ   Z  74.0 269  90  S     26.29 20.50 21.55 0.00 -1.05* 1.28S    0.221                                           
 N.NHJH SHHZ   Z  78.0 237  90  S     28.18 22.39 22.68 0.00 -0.29  1.21S    0.202                                           
 TENMAB SHHZ   Z  85.0 234  90  S     29.05 23.26 24.61 0.00 -1.35* 1.07S    0.159                                           
 TU.HSK  HHZ   Z  96.1 195  90  P     21.43 15.64 16.18 0.00 -0.54* 0.83     0.941                                           
        S                       S     32.65 26.86 27.65 0.00 -0.79* 0.83S    0.213                                           
 KAYABE SHHZ   Z  99.9 316  90  S     32.28 26.49 28.71 0.00 -2.22* 0.74S    0.178                                           
 HU.ESH SHHZ   Z 100.9 315  90  S     32.25 26.46 28.98 0.00 -2.52* 0.72S    0.161                                           
 NANGO  SHHZ   Z 101.8 198  90  S     33.36 27.57 29.22 0.00 -1.65* 0.70S    0.134                                           
 N.TWWH SHHZ   Z 104.9 226  90  S     33.53 27.74 30.08 0.00 -2.34* 0.62S    0.055                                           
 N.KJNH  HHZ   Z 109.3 184  90  P     23.49 17.70 18.31 0.00 -0.61* 0.52     0.129                                           
        S                       S     35.73 29.94 31.30 0.00 -1.36* 0.52S    0.130                                           
 *** SKIP BAD INPUT ARCHIVE CARD:
 200206030009456735 4849137E337410.00
1  3 JUN 2002,  0:09  SEQUENCE NO.    4, ID NO.         4
                                                        ADJUSTMENTS (KM)
  I ORIGIN   LAT N     LON W     Z   NWR  RMS    DT    DLAT   DLON    DZ    RR NF MOD
  1 46.67  35 55.07  137E32.42 10.00  11 0.98  0.069 -6.288 -8.218  0.00010.347 3 JMA
  2 46.74  35 51.68  137E37.89 10.00  11 0.49 -0.397  0.424  0.281  0.000 0.509 3 JMA
 FREE DEPTH
