 HYPOINVERSE 2000
 6/2014 VERSION 1.40 (geoid depth possible)                            
 RUN ON Wed Dec  3 01:05:45 2025      RUN LABEL= 
 PROCESSING DOMAIN=NC  PROCESSING VERSION=01


 TEST PARAMETERS:
   -ITERATION AND CONVERGENCE-     -WEIGHTING AND ERRORS-     -MISCELLANEOUS-
       20=ITRLIM   0.900=DAMP    50.000=DISCUT   0.160=RMSCUT       4=MINSTA
    0.040=DQUIT    0.001=DRQT     1.000=DISW1    1.500=RMSW1        0=NET
    7.000=DXFIX    0.012=EIGTOL   3.000=DISW2    3.000=RMSW2 
   30.000=DZMAX    0.020=RBACK        4=ITRDIS       4=ITRRES   7.000=ZTR
    0.500=DZAIR    0.600=BACFAC   1.000=SWT      0.150=RDERR 
                                                 1.000=ERCOF

      ------DURATION MAG CONSTANTS------       -DELAYS & MISC-    -STATIONS-
   -5.200=FMA1    -0.905=FMA2   -1.0300=DMA0         F=LMULT        F=ATTEN
    3.890=FMB1     2.026=FMB2    2.1000=DMA1         T=CODAWT       5=SITE-LET
    0.013=FMZ1     0.013=FMZ2    0.0000=DMA2         F=LJUNK        1=NET-LET
    0.004=FMD1     0.004=FMD2    0.0000=DMZ                         0=COMP-LET
    0.000=FMF1     0.000=FMF2    1.0000=DMGN  
    0.000=FMGN   210.000=FMBRK   0.0027=DMLIN 
   0.0000=DCOF1    0.000=DBRK1        1=LOGA0 
   0.0000=DCOF2    0.000=DBRK2 
   0.0000=ZCOF     0.000=ZBRK  

    --- MAGNITUDE LABELS & COMPONENTS ---
    FMAG1: LABEL=   ALL COMPS=
    FMAG2: LABEL=    NO COMPS=
    XMAG1: LABEL=   ALL  TYPE=ALL  COMPS=
    XMAG2: LABEL=    NO  TYPE=ALL  COMPS=
    FMAG1 MAGSEL=1  FMAG2 MAGSEL=1

 INPUT FILES:
 COMMANDS:    hypinst                                                     
                                                                          
 STATIONS:    /workspace/data/station/stations_hypoinverse_with_das.sta   STATION FORMAT CODE= 3
 DELAYS:                                                                   
 ATTENUATIONS:                                                             
 CAL FACTORS:                                                              
 FMAG CORRECT:                                                             
 XMAG CORRECT:                                                             

 PHASES:       hypoinverse_input.arc                                       
        PHASE FORMAT CODE= 3, TERMINATOR FORMAT CODE=1
 HOMOGENEOUS LAYER CRUST 1:  /workspace/data/velocity/jma_crh/JMA2001A_P.crh             
 HOMOGENEOUS LAYER CRUST 2:  /workspace/data/velocity/jma_crh/JMA2001A_S.crh             

 OUTPUT FILES: (T IF APPENDED TO)
 (F) PRINTOUT:    hypoinverse_run.prt                                         
 (F) SUMMARY:     hypoinverse_run.sum                                         FORMAT CODE=1
 (F) ARCHIVE:     hypoinverse_run_out.arc                                     ARCHIVE FORMAT CODE= 1

1 15 FEB 2020,  0:27  SEQUENCE NO.    1, ID NO.   3166229
                                                        ADJUSTMENTS (KM)
  I ORIGIN   LAT N     LON W     Z   NWR  RMS    DT    DLAT   DLON    DZ    RR NF MOD
  1 11.16  35 36.98  139E48.45 10.00  64 2.86 -1.454 -8.865  0.743  0.000 8.897 3 JMA
  2  9.71  35 32.20  139E47.96 10.00  64 1.16 -0.240 -2.044  0.046  0.000 2.045 3 JMA
 FREE DEPTH
  3  9.47  35 31.09  139E47.93 10.00  64 1.06 -0.132  0.714 -0.253 15.39815.417 4 JMA
 BEGIN MAIN DISTANCE WEIGHTING
 BEGIN RESIDUAL WEIGHTING
  4  9.33  35 31.48  139E48.09 25.40  62 0.73 -0.482 -1.313 -0.573  0.616 1.559 4 JMA
  5  8.85  35 30.77  139E48.47 26.01  60 0.32 -0.025 -0.560  0.196 -0.694 0.913 4 JMA
  6  8.83  35 30.47  139E48.34 25.32  60 0.28 -0.017 -0.073  0.043 -0.051 0.099 4 JMA
  7  8.81  35 30.43  139E48.32 25.27  60 0.28 -0.008 -0.015  0.022  0.018 0.032 4 JMA

              EIGENVALUES
     ( 8.968  1.130  1.020  0.456)
      EIGENVECTORS OF ADJUSTMENT                COVARIANCE             ERRORS
 OT  (-0.996 -0.019  0.026  0.081) (   0.005  -0.005  -0.005  -0.040)   0.068
 LAT (-0.030  0.965 -0.252 -0.060) (  -0.005   0.083   0.006   0.024)   0.288
 LON (-0.026 -0.256 -0.964 -0.060) (  -0.005   0.006   0.099   0.023)   0.315
 Z   (-0.078 -0.044  0.076 -0.993) (  -0.040   0.024   0.023   0.489)   0.699
 ERROR ELLIPSE: <SERR AZ DIP>-<   0.70 314 85>-<   0.31 104  4>-<   0.28 195  2>
 ------------------------------------------------------------------------------------
 YEAR MO DA  --ORIGIN--  --LAT N-  --LON W--  DEPTH-M RMS   ERH   ERZ  XMAG1 FMAG1 PMAG GEOID-DEP
 2020-02-15  0027  8.81  35 30.43  139E48.32  25.27  0.28  0.31  0.70                      25.27
                                                                                          SOURCE
 NSTA NPHS  DMIN MODEL GAP ITR NFM NWR NWS NVR REMRKS-AVH  N.XMG-XMMAD-T   N.FMG-FMMAD-T  L F X
   64   64  11.6  JMAS  30   7   0  60  17  64                                                 

 XMAG2-N.XMG2-XMMAD-T-S  FMAG2-N.FMG2-FMMAD-T-S  PREF.MAG-N.PMAG-PRMAD-T DEPDAT NS ZT TYP
                                                                              0  0  M CRH
 REGION=                          

 STA NET COM L CR DIST AZM  AN P/S WT   SEC (TOBS -TCAL -DLY  =RES)  WT   SR  INFO  CAL  DUR-W-FMAG-T -AMP-U-PER-W-XMAG-T DE
 N.KOTH  HHZ   Z  11.6   3 152  P  1  13.16  4.35  4.57 0.00 -0.22  1.06     0.034                                           
        S                       S     16.46  7.65  7.81 0.00 -0.16  2.12S    0.542                                           
 N.FUTH  HHZ   Z  18.6 165 138  P  1  13.44  4.63  5.15 0.00 -0.52* 1.02     0.022                                           
        S                       S  1  17.28  8.47  8.81 0.00 -0.34  1.06S    0.107                                           
 N.YFTH  HHZ   Z  22.8 229 132  P  1  14.94  6.13  5.58 0.00  0.55* 0.98     0.024                                           
 N.YKHH  HHZ   Z  25.9 269 127  P  1  14.55  5.74  5.94 0.00 -0.20  1.06     0.036                                           
        S                       S  1  18.83 10.02 10.16 0.00 -0.14  1.06S    0.092                                           
 N.HYMH  HHZ   Z  32.4 214 119  P  1  15.41  6.60  6.72 0.00 -0.12  1.06     0.028                                           
        S                       S     20.47 11.66 11.50 0.00  0.16  2.12S    0.276                                           
 YOKOSK  HHZ   Z  33.7 203 118  P  1  15.98  7.17  6.89 0.00  0.28  1.06     0.026                                           
        S                       S  1  22.54 13.73 11.78 0.00  1.95* 0.00S    0.000                                           
 N.YSKH  HHZ   Z  34.3 197 117  P  1  15.95  7.14  6.97 0.00  0.17  1.06     0.025                                           
        S                       S  1  22.72 13.91 11.93 0.00  1.98* 0.00S    0.000                                           
 N.FCHH  HHZ   Z  34.4 299 117  P  1  15.52  6.71  6.99 0.00 -0.28  1.06     0.046                                           
        S                       S  1  20.89 12.08 11.95 0.00  0.13  1.06S    0.089                                           
 D0698   HHZ   Z  35.1  89 117  P  3  16.05  7.24  7.08 0.55 -0.39  0.42     0.004                                           
 D0643   HHZ   Z  35.1  89 117  P  3  16.13  7.32  7.08 0.58 -0.34  0.42     0.004                                           
 D0523   HHZ   Z  35.1  89 117  P  3  16.16  7.35  7.08 0.64 -0.37  0.42     0.004                                           
 D0578   HHZ   Z  35.1  89 117  P  3  16.17  7.36  7.08 0.61 -0.33  0.42     0.004                                           
 D0555   HHZ   Z  35.1  89 117  P  3  16.18  7.37  7.08 0.62 -0.33  0.42     0.004                                           
 D0446   HHZ   Z  35.1  89 117  P  3  16.22  7.41  7.08 0.68 -0.35  0.42     0.004                                           
 D0399   HHZ   Z  35.1  89 117  P  3  16.25  7.44  7.08 0.70 -0.34  0.42     0.004                                           
 D0336   HHZ   Z  35.1  89 117  P  3  16.28  7.47  7.08 0.73 -0.34  0.42     0.004                                           
 D0225   HHZ   Z  35.1  89 117  P  3  16.33  7.52  7.08 0.79 -0.35  0.42     0.004                                           
 D0266   HHZ   Z  35.1  89 117  P  3  16.33  7.52  7.08 0.77 -0.33  0.42     0.004                                           
 D0293   HHZ   Z  35.1  89 117  P  3  16.35  7.54  7.08 0.75 -0.29  0.42     0.004                                           
 N.ICHH  HHZ   Z  35.3 108 116  P     16.34  7.53  7.10 0.00  0.43  2.12     0.099                                           
 N.SHMH SHHZ   Z  37.6  31 115  S     21.62 12.81 12.66 0.00  0.15  2.12S    0.278                                           
 N.CBAH  HHZ   Z  39.8  83 112  P  1  16.29  7.48  7.70 0.00 -0.22  1.06     0.029                                           
        S                       S  1  22.28 13.47 13.18 0.00  0.29  1.06S    0.065                                           
 N.YROH  HHZ   Z  39.9 127 112  P  1  16.20  7.39  7.72 0.00 -0.33  1.06     0.025                                           
        S                       S     22.00 13.19 13.21 0.00 -0.02  2.12S    0.243                                           
 N.TKRH  HHZ   Z  40.9 324 111  P  1  16.79  7.98  7.85 0.00  0.13  1.06     0.051                                           
        S                       S  1  22.74 13.93 13.43 0.00  0.50* 1.04S    0.086                                           
 CHONAN  HHZ   Z  41.4 109 111  P  1  17.38  8.57  7.91 0.00  0.66* 0.67     0.010                                           
        S                       S  1  25.09 16.28 13.54 0.00  2.74* 0.00S    0.000                                           
 N.ATGH  HHZ   Z  42.5 255 110  P  1  16.88  8.07  8.07 0.00  0.00  1.06     0.046                                           
        S                       S  1  23.13 14.32 13.82 0.00  0.50  1.04S    0.080                                           
 N.KMWH  HHZ   Z  43.4 160 110  P     16.63  7.82  8.19 0.00 -0.37  2.12     0.105                                           
        S                       S     22.82 14.01 14.02 0.00 -0.01  2.12S    0.218                                           
 N.IWTH  HHZ   Z  47.2 353 107  P  1  17.50  8.69  8.72 0.00 -0.03  1.06     0.052                                           
 N.KMSH  HHZ   Z  53.6 149 103  P     18.96 10.15  9.62 0.00  0.53* 2.01     0.113                                           
 N.NRTH  HHZ   Z  57.3  51 102  P  1  18.83 10.02 10.14 0.00 -0.12  1.05     0.045                                           
        S                       S  1  25.91 17.10 17.38 0.00 -0.28  1.05S    0.071                                           
 N.ST6H  HHZ   Z  59.9 221 101  P     19.11 10.30 10.51 0.00 -0.21  2.07     0.182                                           
 N.CKRH  HHZ   Z  60.9 167 101  P     19.41 10.60 10.66 0.00 -0.06  2.06     0.134                                           
 N.HSNH  HHZ   Z  64.7  81  99  P  1  19.61 10.80 11.21 0.00 -0.41  1.00     0.039                                           
        S                       S  1  27.79 18.98 19.22 0.00 -0.24  1.00S    0.064                                           
 N.EDSH  HHZ   Z  68.5  43  98  P  1  20.47 11.66 11.76 0.00 -0.10  0.97     0.045                                           
        S                       S  1  29.16 20.35 20.17 0.00  0.18  0.97S    0.069                                           
 ODAWA2  HHZ   Z  70.7 249  98  P  1  20.10 11.29 12.07 0.00 -0.78* 0.23     0.002                                           
        S                       S  1  28.97 20.16 20.71 0.00 -0.55* 0.88S    0.068                                           
 N.NGRH  HHZ   Z  74.5 308  97  P  1  21.31 12.50 12.62 0.00 -0.12  0.91     0.056                                           
        S                       S  1  31.28 22.47 21.67 0.00  0.80* 0.17S    0.003                                           
 E.TSK   HHZ   Z  82.9  19  96  P  1  22.69 13.88 13.85 0.00  0.03  0.80     0.037                                           
 N.TBYH  HHZ   Z  85.1 345  96  P  1  23.08 14.27 14.17 0.00  0.10  0.77     0.039                                           
        S                       S  1  33.45 24.64 24.33 0.00  0.31  0.77S    0.061                                           
 N.CH2H  HHZ   Z  95.6  74  95  P     24.29 15.48 15.70 0.00 -0.22  1.21     0.068                                           
 RYOKAM  HHZ   Z  99.9 306  94  P     24.74 15.93 16.32 0.00 -0.39  1.06     0.083                                           
 ASHIKA  HHZ   Z 107.1 343  94  P  1  26.22 17.41 17.38 0.00  0.03  0.41     0.012                                           
 N.KWKH  HHZ   Z 122.0 296  93  P  1  28.58 19.77 19.55 0.00  0.22  0.19     0.002                                           
 N.MOTH  HHZ   Z 122.1  17  93  P  1  28.06 19.25 19.57 0.00 -0.32  0.19     0.002                                           
 N.ASOH  HHZ   Z 128.9 347  93  P  1  29.41 20.60 20.55 0.00  0.05  0.11     0.000                                           
 E.OKY   HHZ   Z 129.5 257  93  P  1  28.34 19.53 20.65 0.00 -1.12* 0.00     0.000                                           
 *** SKIP BAD INPUT ARCHIVE CARD:
 202002150101012535 5203139E307310.00
1 15 FEB 2020,  1:01  SEQUENCE NO.    2, ID NO.   3166244
                                                        ADJUSTMENTS (KM)
  I ORIGIN   LAT N     LON W     Z   NWR  RMS    DT    DLAT   DLON    DZ    RR NF MOD
  1  2.25  35 56.04  139E43.79 10.00  58 5.33 -2.377  1.426  4.005  0.000 4.252 3 JMA
 FREE DEPTH
 DEPTH ADJUSTMENT DAMPED
  2 -0.13  35 56.81  139E41.12 10.00  58 4.34 -0.775 -0.604 -3.030 17.44917.721 4 JMA
 DEPTH ADJUSTMENT DAMPED
  3 -0.90  35 56.48  139E43.14 27.45  58 3.37 -4.173 -1.502  4.278 18.18818.745 4 JMA
 BEGIN MAIN DISTANCE WEIGHTING
 BEGIN RESIDUAL WEIGHTING
  4 -5.08  35 55.67  139E40.29 45.64  57 3.12 -1.123 -1.557  2.263 28.74528.876 4 JMA
  5 -6.20  35 54.83  139E38.78 74.38  47 0.30 -0.491 -0.193  0.843  2.753 2.886 4 JMA
  6 -6.69  35 54.73  139E38.22 77.14  48 0.23 -0.061  0.037  0.232  0.298 0.380 4 JMA
  7 -6.75  35 54.75  139E38.06 77.43  48 0.22 -0.005 -0.032  0.099 -0.018 0.106 4 JMA
  8 -6.76  35 54.73  139E38.00 77.42  48 0.22  0.005 -0.039  0.055 -0.070 0.097 4 JMA
  9 -6.75  35 54.71  139E37.96 77.35  48 0.21  0.004 -0.042  0.024 -0.046 0.067 4 JMA
 10 -6.75  35 54.69  139E37.95 77.30  48 0.21  0.002 -0.036  0.055 -0.031 0.072 4 JMA

              EIGENVALUES
     ( 8.070  0.527  0.495  0.361)
      EIGENVECTORS OF ADJUSTMENT                COVARIANCE             ERRORS
 OT  (-0.989 -0.015  0.016 -0.144) (   0.012  -0.002   0.001  -0.075)   0.109
 LAT ( 0.006 -0.196  0.977  0.088) (  -0.002   0.280  -0.006   0.022)   0.529
 LON ( 0.008 -0.980 -0.199  0.022) (   0.001  -0.006   0.248   0.007)   0.498
 Z   (-0.145  0.037 -0.080  0.985) (  -0.075   0.022   0.007   0.510)   0.714
 ERROR ELLIPSE: <SERR AZ DIP>-<   0.72 345 84>-<   0.53 191  4>-<   0.50 102  2>
 ------------------------------------------------------------------------------------
 YEAR MO DA  --ORIGIN--  --LAT N-  --LON W--  DEPTH-M RMS   ERH   ERZ  XMAG1 FMAG1 PMAG GEOID-DEP
 2020-02-15  0100 53.25  35 54.69  139E37.95  77.30  0.21  0.53  0.71                      77.30
                                                                                          SOURCE
 NSTA NPHS  DMIN MODEL GAP ITR NFM NWR NWS NVR REMRKS-AVH  N.XMG-XMMAD-T   N.FMG-FMMAD-T  L F X
   58   58   9.4  JMAS  60  10   0  48  22  58                                                 

 XMAG2-N.XMG2-XMMAD-T-S  FMAG2-N.FMG2-FMMAD-T-S  PREF.MAG-N.PMAG-PRMAD-T DEPDAT NS ZT TYP
                                                                              0  0  M CRH
 REGION=                          

 STA NET COM L CR DIST AZM  AN P/S WT   SEC (TOBS -TCAL -DLY  =RES)  WT   SR  INFO  CAL  DUR-W-FMAG-T -AMP-U-PER-W-XMAG-T DE
 N.IWTH  HHZ   Z   9.4  78 172  P     64.25 11.00 11.12 0.00 -0.12  1.75     0.067                                           
        S                       S     72.64 19.39 19.35 0.00  0.04  1.75S    0.190                                           
 N.TKRH  HHZ   Z  14.9 217 167  P     64.94 11.69 11.24 0.00  0.45  1.50     0.052                                           
        S                       S     73.84 20.59 19.56 0.00  1.03* 0.00S    0.000                                           
 N.HDKH  HHZ   Z  22.4 267 161  P     64.68 11.43 11.49 0.00 -0.06  1.75     0.078                                           
        S                       S     73.32 20.07 20.00 0.00  0.07  1.75S    0.185                                           
 N.YMIH  HHZ   Z  23.5 312 160  P     64.81 11.56 11.54 0.00  0.02  1.75     0.080                                           
        S                       S     73.38 20.13 20.07 0.00  0.06  1.75S    0.178                                           
 N.FCHH  HHZ   Z  32.1 208 154  P     65.16 11.91 11.95 0.00 -0.04  1.75     0.111                                           
        S                       S  1  73.61 20.36 20.79 0.00 -0.43  0.79S    0.048                                           
 N.HHNH  HHZ   Z  32.9 261 153  P     65.57 12.32 11.99 0.00  0.33  1.75     0.102                                           
        S                       S     74.64 21.39 20.86 0.00  0.53* 0.96S    0.060                                           
 N.KOTH  HHZ   Z  37.1 153 150  P     65.44 12.19 12.23 0.00 -0.04  1.75     0.134                                           
        S                       S     74.19 20.94 21.28 0.00 -0.34  1.75S    0.273                                           
 N.TBYH  HHZ   Z  37.8 348 150  P  1  65.31 12.06 12.27 0.00 -0.21  0.88     0.031                                           
        S                       S  1  74.24 20.99 21.36 0.00 -0.37  0.87S    0.053                                           
 N.KWTH  HHZ   Z  38.2 306 149  P  1  65.46 12.21 12.30 0.00 -0.09  0.88     0.029                                           
        S                       S  1  74.61 21.36 21.40 0.00 -0.04  0.88S    0.050                                           
 N.ISGH  HHZ   Z  39.0  55 149  P  1  65.56 12.31 12.35 0.00 -0.04  0.88     0.034                                           
        S                       S     74.86 21.61 21.49 0.00  0.12  1.75S    0.249                                           
 E2DDR   HHZ   Z  41.4 285 147  P  1  65.86 12.61 12.50 0.00  0.11  0.88     0.031                                           
        S                       S  1  75.17 21.92 21.76 0.00  0.16  0.88S    0.052                                           
 N.HOJH  HHZ   Z  42.7 232 146  P  1  65.96 12.71 12.59 0.00  0.12  0.88     0.034                                           
        S                       S  1  74.81 21.56 21.91 0.00 -0.35  0.88S    0.063                                           
 N.NGRH  HHZ   Z  43.7 271 146  P  1  66.00 12.75 12.66 0.00  0.09  0.88     0.033                                           
        S                       S  1  75.55 22.30 22.03 0.00  0.27  0.88S    0.055                                           
 E.HCJ   HHZ   Z  44.6 227 145  P  1  66.06 12.81 12.72 0.00  0.09  0.88     0.036                                           
        S                       S  1  75.17 21.92 22.15 0.00 -0.23  0.88S    0.066                                           
 N.YKHH  HHZ   Z  46.9 193 144  P  1  65.98 12.73 12.88 0.00 -0.15  0.88     0.040                                           
        S                       S  1  75.28 22.03 22.43 0.00 -0.40  0.84S    0.070                                           
 E.TSK   HHZ   Z  54.3  51 139  P  1  66.76 13.51 13.45 0.00  0.06  0.87     0.048                                           
        S                       S  1  76.88 23.63 23.42 0.00  0.21  0.87S    0.075                                           
