 HYPOINVERSE 2000
 6/2014 VERSION 1.40 (geoid depth possible)                            
 RUN ON Sat Nov 22 07:38:00 2025      RUN LABEL= 
 PROCESSING DOMAIN=NC  PROCESSING VERSION=01


 TEST PARAMETERS:
   -ITERATION AND CONVERGENCE-     -WEIGHTING AND ERRORS-     -MISCELLANEOUS-
       20=ITRLIM   0.900=DAMP    50.000=DISCUT   0.160=RMSCUT       4=MINSTA
    0.040=DQUIT    0.001=DRQT     1.000=DISW1    1.500=RMSW1        0=NET
    7.000=DXFIX    0.012=EIGTOL   3.000=DISW2    3.000=RMSW2 
   30.000=DZMAX    0.020=RBACK        4=ITRDIS       4=ITRRES   7.000=ZTR
    0.500=DZAIR    0.600=BACFAC   1.000=SWT      0.150=RDERR 
                                                 1.000=ERCOF

      ------DURATION MAG CONSTANTS------       -DELAYS & MISC-    -STATIONS-
   -5.200=FMA1    -0.905=FMA2   -1.0300=DMA0         F=LMULT        F=ATTEN
    3.890=FMB1     2.026=FMB2    2.1000=DMA1         T=CODAWT       5=SITE-LET
    0.013=FMZ1     0.013=FMZ2    0.0000=DMA2         F=LJUNK        1=NET-LET
    0.004=FMD1     0.004=FMD2    0.0000=DMZ                         3=COMP-LET
    0.000=FMF1     0.000=FMF2    1.0000=DMGN  
    0.000=FMGN   210.000=FMBRK   0.0027=DMLIN 
   0.0000=DCOF1    0.000=DBRK1        1=LOGA0 
   0.0000=DCOF2    0.000=DBRK2 
   0.0000=ZCOF     0.000=ZBRK  

    --- MAGNITUDE LABELS & COMPONENTS ---
    FMAG1: LABEL=   ALL COMPS=
    FMAG2: LABEL=    NO COMPS=
    XMAG1: LABEL=   ALL  TYPE=ALL  COMPS=
    XMAG2: LABEL=    NO  TYPE=ALL  COMPS=
    FMAG1 MAGSEL=1  FMAG2 MAGSEL=1

 INPUT FILES:
 COMMANDS:    hypinst                                                     
                                                                          
 STATIONS:    /workspace/data/station/stations_hypoinverse.sta            STATION FORMAT CODE= 3
 DELAYS:                                                                   
 ATTENUATIONS:                                                             
 CAL FACTORS:                                                              
 FMAG CORRECT:                                                             
 XMAG CORRECT:                                                             

 PHASES:       hypoinverse_input.arc                                       
        PHASE FORMAT CODE= 3, TERMINATOR FORMAT CODE=1
 HOMOGENEOUS LAYER CRUST 1:  /workspace/data/velocity/jma_crh/JMA2001A_P.crh             
 HOMOGENEOUS LAYER CRUST 2:  /workspace/data/velocity/jma_crh/JMA2001A_S.crh             

 OUTPUT FILES: (T IF APPENDED TO)
 (F) PRINTOUT:    hypoinverse_run.prt                                         
 (F) SUMMARY:     hypoinverse_run.sum                                         FORMAT CODE=1
 (F) ARCHIVE:     hypoinverse_run_out.arc                                     ARCHIVE FORMAT CODE= 1

1  3 JUN 2002,  0:02  SEQUENCE NO.    1, ID NO.         1
  FIX DEPTH FOR THIS EVENT
                                                        ADJUSTMENTS (KM)
  I ORIGIN   LAT N     LON W     Z   NWR  RMS    DT    DLAT   DLON    DZ    RR NF MOD
  1 31.03  34 49.30  134E48.18 13.00  37 2.46 -0.944-12.607 -5.364  0.00013.701 3 JMA
  2 30.09  34 42.50  134E51.70 13.00  37 0.53 -0.472 -1.234 -0.965  0.000 1.567 3 JMA
  3 29.61  34 41.83  134E52.33 13.00  37 0.19 -0.049 -0.124 -0.112  0.000 0.167 3 JMA
 BEGIN MAIN DISTANCE WEIGHTING
 BEGIN RESIDUAL WEIGHTING
  4 29.57  34 41.76  134E52.41 13.00  36 0.15  0.043  0.208  0.083  0.000 0.224 3 JMA
  5 29.61  34 41.88  134E52.35 13.00  35 0.14  0.017  0.074  0.017  0.000 0.076 3 JMA
  6 29.62  34 41.92  134E52.34 13.00  35 0.13  0.010  0.056  0.012  0.000 0.057 3 JMA
  7 29.63  34 41.95  134E52.34 13.00  35 0.13  0.007  0.044 -0.001  0.000 0.044 3 JMA
  8 29.64  34 41.97  134E52.34 13.00  34 0.13  0.005  0.033 -0.002  0.000 0.033 3 JMA
  9 29.65  34 41.99  134E52.34 13.00  34 0.13  0.003  0.013  0.010  0.000 0.017 3 JMA

              EIGENVALUES
     ( 6.249  0.883  0.798  0.000)
      EIGENVECTORS OF ADJUSTMENT                COVARIANCE             ERRORS
 OT  (-0.993  0.067  0.093  0.000) (   0.002   0.006  -0.000   0.000)   0.042
 LAT ( 0.114  0.547  0.829  0.000) (   0.006   0.057  -0.005   0.000)   0.240
 LON ( 0.005  0.834 -0.551  0.000) (  -0.000  -0.005   0.054   0.000)   0.232
 Z   ( 0.000  0.000  0.000  0.000) (   0.000   0.000   0.000 999.000)  31.607
 ERROR ELLIPSE: <SERR AZ DIP>-<  31.61   0 90>-<   0.25 216  0>-<   0.22 125  0>
 ------------------------------------------------------------------------------------
 YEAR MO DA  --ORIGIN--  --LAT N-  --LON W--  DEPTH-M RMS   ERH   ERZ  XMAG1 FMAG1 PMAG GEOID-DEP
 2002-06-03  0002 29.65  34 41.99  134E52.34  13.00  0.13  0.25 31.61                      13.00
                                                                                          SOURCE
 NSTA NPHS  DMIN MODEL GAP ITR NFM NWR NWS NVR REMRKS-AVH  N.XMG-XMMAD-T   N.FMG-FMMAD-T  L F X
   37   37  14.2  JMAS 101   9   0  34  19  37      -                                          

 XMAG2-N.XMG2-XMMAD-T-S  FMAG2-N.FMG2-FMMAD-T-S  PREF.MAG-N.PMAG-PRMAD-T DEPDAT NS ZT TYP
                                                                              0  0  M CRH
 REGION=                          

 STA NET COM L CR DIST AZM  AN P/S WT   SEC (TOBS -TCAL -DLY  =RES)  WT   SR  INFO  CAL  DUR-W-FMAG-T -AMP-U-PER-W-XMAG-T DE
 N.KKGH  HHZ   Z  14.2 336 127  P     33.03  3.38  3.34 0.00  0.04  1.10     0.035                                           
        S                       S     35.26  5.61  5.69 0.00 -0.08  1.10S    0.053                                           
 DP.TOS  HHZ   Z  18.0 157 120  P  1  33.42  3.77  3.85 0.00 -0.08  0.82     0.076                                           
        S                       S     35.82  6.17  6.55 0.00 -0.38  0.37S    0.026                                           
 MIKI    HHZ   Z  20.4  53 116  P     33.97  4.32  4.19 0.00  0.13  1.10     0.055                                           
        S                       S     36.99  7.34  7.13 0.00  0.21  1.10S    0.102                                           
 GS.IKH SHHZ   Z  20.8 173 116  S     36.67  7.02  7.21 0.00 -0.19  1.10S    0.256                                           
 N.TJOH  HHZ   Z  30.2  39 105  P     35.38  5.73  5.66 0.00  0.07  1.10     0.049                                           
        S                       S     39.20  9.55  9.64 0.00 -0.09  1.10S    0.100                                           
 DP.IZT SHHZ   Z  30.6   2 105  S     39.45  9.80  9.75 0.00  0.05  1.10S    0.073                                           
 KASAI   HHZ   Z  31.9 355 103  P     35.59  5.94  5.93 0.00  0.01  1.10     0.034                                           
        S                       S     39.75 10.10 10.09 0.00  0.01  1.10S    0.072                                           
 N.AIOH  HHZ   Z  37.4 287 100  P     36.65  7.00  6.80 0.00  0.20  1.10     0.078                                           
        S                       S     41.05 11.40 11.58 0.00 -0.18  1.10S    0.142                                           
 N.SGUH  HHZ   Z  39.6 311  99  P     36.99  7.34  7.15 0.00  0.19  1.10     0.053                                           
        S                       S     41.76 12.11 12.18 0.00 -0.07  1.10S    0.100                                           
 N.YMSH  HHZ   Z  41.2 334  98  P     37.12  7.47  7.41 0.00  0.06  1.10     0.039                                           
        S                       S     42.05 12.40 12.62 0.00 -0.22  1.10S    0.078                                           
 N.KAMH SHHZ   Z  44.6   3  98  S     43.05 13.40 13.52 0.00 -0.12  1.10S    0.077                                           
 N.KNHH  HHZ   Z  47.6  94  96  P     38.03  8.38  8.42 0.00 -0.04  1.10     0.096                                           
        S                       S     43.52 13.87 14.35 0.00 -0.48  0.00S    0.000                                           
 DP.TNJ  HHZ   Z  48.3  39  96  P     38.30  8.65  8.53 0.00  0.12  1.10     0.050                                           
        S                       S     44.10 14.45 14.55 0.00 -0.10  1.10S    0.106                                           
 N.WKYH SHHZ   Z  49.4 158  96  S     44.52 14.87 14.83 0.00  0.04  1.10S    0.276                                           
 N.TJRH  HHZ   Z  50.5 131  96  P     38.34  8.69  8.88 0.00 -0.19  1.10     0.132                                           
        S                       S     44.15 14.50 15.14 0.00 -0.64* 0.00S    0.000                                           
 N.KMGH  HHZ   Z  54.5 295  95  P     39.30  9.65  9.52 0.00  0.13  1.09     0.069                                           
        S                       S     45.75 16.10 16.24 0.00 -0.14  1.09S    0.128                                           
 N.HNSH  HHZ   Z  54.9 274  95  P     39.48  9.83  9.58 0.00  0.25  1.09     0.092                                           
        S                       S     45.56 15.91 16.34 0.00 -0.43  0.08S    0.000                                           
 N.SSYH SHHZ   Z  55.6  42  95  S     46.17 16.52 16.54 0.00 -0.02  1.09S    0.108                                           
 N.NKOH  HHZ   Z  57.8 315  94  P     39.85 10.20 10.06 0.00  0.14  1.08     0.049                                           
        S                       S     46.78 17.13 17.16 0.00 -0.03  1.08S    0.094                                           
 DP.HMT SHHZ   Z  60.8  14  94  S     47.46 17.81 17.96 0.00 -0.15  1.07S    0.080                                           
 DP.YGI  HHZ   Z  71.3  54  93  P     41.96 12.31 12.22 0.00  0.09  0.98     0.048                                           
        S                       S     50.52 20.87 20.86 0.00  0.01  0.98S    0.099                                           
 DP.OYT SHHZ   Z  71.9 345  93  S     50.62 20.97 21.03 0.00 -0.06  0.97S    0.060                                           
 *** SKIP BAD INPUT ARCHIVE CARD:
 200206030003564624 3773121E5292 0.48
1  3 JUN 2002,  0:04  SEQUENCE NO.    2, ID NO.         2
  FIX DEPTH FOR THIS EVENT
                                                        ADJUSTMENTS (KM)
  I ORIGIN   LAT N     LON W     Z   NWR  RMS    DT    DLAT   DLON    DZ    RR NF MOD
 CURB DISTANCE STEP. ALL ADJUSTMENTS DAMPED BY 0.554
  1 12.93  24 28.33  123E 0.38  0.48  14 6.60 -7.252 34.024 36.638  0.00050.000 3 JMA
  2  5.68  24 46.69  122E38.60  0.48  14 3.24 -7.677 23.941 35.950  0.00043.192 3 JMA
  3 -2.00  24 59.61  122E17.20  0.48  14 1.13 -1.336  1.371  7.876  0.000 7.994 3 JMA
 BEGIN MAIN DISTANCE WEIGHTING
 BEGIN RESIDUAL WEIGHTING
  4 -3.33  25  0.35  122E12.51  0.48  14 0.96 -0.541  3.030  1.053  0.000 3.207 3 JMA
  5 -3.88  25  1.98  122E11.88  0.48  14 0.90 -0.285  5.677 -1.172  0.000 5.797 3 JMA
  6 -4.16  25  5.05  122E12.58  0.48  13 0.87 -0.157  2.839 -0.512  0.000 2.885 3 JMA
  7 -4.32  25  6.58  122E12.89  0.48  13 0.86 -0.003  0.988 -0.568  0.000 1.140 3 JMA
  8 -4.32  25  7.11  122E13.23  0.48  13 0.85 -0.005  0.515 -0.287  0.000 0.590 3 JMA
  9 -4.32  25  7.39  122E13.40  0.48  13 0.85 -0.013  0.237 -0.069  0.000 0.247 3 JMA
 10 -4.34  25  7.52  122E13.44  0.48  13 0.85 -0.012 -0.182  0.154  0.000 0.238 3 JMA

              EIGENVALUES
     ( 3.694  0.201  0.099  0.000)
      EIGENVECTORS OF ADJUSTMENT                COVARIANCE             ERRORS
 OT  (-0.983  0.182 -0.030  0.000) (   0.728  -0.204  -3.965   0.000)   0.853
 LAT (-0.087 -0.603 -0.793  0.000) (  -0.204  53.692 -27.459   0.000)   7.328
 LON (-0.163 -0.777  0.608  0.000) (  -3.965 -27.459  38.724   0.000)   6.223
 Z   ( 0.000  0.000  0.000  0.000) (   0.000   0.000   0.000 999.000)  31.607
 ERROR ELLIPSE: <SERR AZ DIP>-<  31.61   0 90>-<   8.64 218  0>-<   4.21 127  0>
 ------------------------------------------------------------------------------------
 YEAR MO DA  --ORIGIN--  --LAT N-  --LON W--  DEPTH-M RMS   ERH   ERZ  XMAG1 FMAG1 PMAG GEOID-DEP
 2002-06-03  0003 55.66  25  7.52  122E13.44   0.48  0.85  8.64 31.61                       0.48
                                                                                          SOURCE
 NSTA NPHS  DMIN MODEL GAP ITR NFM NWR NWS NVR REMRKS-AVH  N.XMG-XMMAD-T   N.FMG-FMMAD-T  L F X
   14   14 107.9  JMAS 324  10   0  13   5  14      -                                          

 XMAG2-N.XMG2-XMMAD-T-S  FMAG2-N.FMG2-FMMAD-T-S  PREF.MAG-N.PMAG-PRMAD-T DEPDAT NS ZT TYP
                                                                              0  0  M CRH
 REGION=                          

 STA NET COM L CR DIST AZM  AN P/S WT   SEC (TOBS -TCAL -DLY  =RES)  WT   SR  INFO  CAL  DUR-W-FMAG-T -AMP-U-PER-W-XMAG-T DE
 YONAGU  HHZ   Z 107.9 132  59  P     74.93 19.27 18.79 0.00  0.48  1.06     0.311                                           
        S                       S     88.53 32.87 32.03 0.00  0.84* 1.06S    0.613                                           
 IRIOMH  HHZ   Z 174.4 117  51  P     84.38 28.72 28.81 0.00 -0.09  1.06     0.130                                           
        S                       S    105.59 49.93 49.47 0.00  0.46  1.06S    0.223                                           
 HATOMA  HHZ   Z 177.3 113  51  P     85.24 29.58 29.23 0.00  0.35  1.06     0.138                                           
        S                       S    106.53 50.87 50.21 0.00  0.66* 1.06S    0.306                                           
 HATERS  HHZ   Z 198.7 126  51  P     86.62 30.96 32.38 0.00 -1.42* 1.02     0.190                                           
 KUROSH  HHZ   Z 205.4 118  45  P     88.51 32.85 33.26 0.00 -0.41  1.04     0.162                                           
        S                       S    111.98 56.32 57.33 0.00 -1.01* 1.04S    0.205                                           
 ISHIG2  HHZ   Z 211.5 112  45  P     89.39 33.73 34.07 0.00 -0.34  1.03     0.163                                           
        S                       S    113.28 57.62 58.86 0.00 -1.24* 1.03S    0.227                                           
 TARAMA  HHZ   Z 256.4 101  45  P     97.27 41.61 40.06 0.00  1.55* 0.84     0.185                                           
 IKEMA   HHZ   Z 306.1  93  45  P    105.21 49.55 46.68 0.00  2.87* 0.00     0.000                                           
 OKIGUS  HHZ   Z 323.9  96  43  P    106.09 50.43 49.04 0.00  1.39* 0.64     0.141                                           
 *** SKIP BAD INPUT ARCHIVE CARD:
 200206030009057241 1457141E410455.70
1  3 JUN 2002,  0:09  SEQUENCE NO.    3, ID NO.         3
  FIX DEPTH FOR THIS EVENT
                                                        ADJUSTMENTS (KM)
  I ORIGIN   LAT N     LON W     Z   NWR  RMS    DT    DLAT   DLON    DZ    RR NF MOD
  1 12.97  41 22.30  141E24.58 55.70  16 7.69 -6.247-11.534-24.215  0.00026.821 3 JMA
  2  6.72  41 16.08  141E41.96 55.70  16 1.59 -1.369 -1.770 -1.368  0.000 2.237 3 JMA
  3  5.35  41 15.12  141E42.95 55.70  16 0.38 -0.144 -0.201 -0.175  0.000 0.267 3 JMA
 BEGIN MAIN DISTANCE WEIGHTING
 BEGIN RESIDUAL WEIGHTING
  4  5.21  41 15.01  141E43.07 55.70  16 0.30  0.213  0.497  1.517  0.000 1.597 3 JMA
  5  5.42  41 15.28  141E41.98 55.70  14 0.22  0.168  0.487  1.381  0.000 1.465 3 JMA
  6  5.59  41 15.54  141E40.99 55.70  13 0.15  0.067  0.026  0.652  0.000 0.652 3 JMA
  7  5.66  41 15.56  141E40.52 55.70  13 0.14  0.010 -0.070  0.164  0.000 0.179 3 JMA
  8  5.67  41 15.52  141E40.40 55.70  13 0.14  0.004 -0.030  0.057  0.000 0.064 3 JMA
  9  5.67  41 15.50  141E40.36 55.70  13 0.14  0.002 -0.012  0.009  0.000 0.015 3 JMA
 10  5.67  41 15.50  141E40.36 55.70  13 0.14 -0.001  0.001 -0.016  0.000 0.016 3 JMA

              EIGENVALUES
     ( 3.824  0.366  0.186  0.000)
      EIGENVECTORS OF ADJUSTMENT                COVARIANCE             ERRORS
 OT  (-0.994  0.000 -0.108  0.000) (   0.016  -0.016   0.125   0.000)   0.128
 LAT (-0.013  0.992  0.128  0.000) (  -0.016   0.320  -0.109   0.000)   0.565
 LON ( 0.107  0.129 -0.986  0.000) (   0.125  -0.109   1.148   0.000)   1.072
 Z   ( 0.000  0.000  0.000  0.000) (   0.000   0.000   0.000 999.000)  31.607
 ERROR ELLIPSE: <SERR AZ DIP>-<  31.61   0 90>-<   1.08 263  0>-<   0.55 353  0>
 ------------------------------------------------------------------------------------
 YEAR MO DA  --ORIGIN--  --LAT N-  --LON W--  DEPTH-M RMS   ERH   ERZ  XMAG1 FMAG1 PMAG GEOID-DEP
 2002-06-03  0009  5.67  41 15.50  141E40.36  55.70  0.14  1.08 31.61                      55.70
                                                                                          SOURCE
 NSTA NPHS  DMIN MODEL GAP ITR NFM NWR NWS NVR REMRKS-AVH  N.XMG-XMMAD-T   N.FMG-FMMAD-T  L F X
   16   16  24.7  JMAS 212  10   0  13   9  16      -                                          

 XMAG2-N.XMG2-XMMAD-T-S  FMAG2-N.FMG2-FMMAD-T-S  PREF.MAG-N.PMAG-PRMAD-T DEPDAT NS ZT TYP
                                                                              0  0  M CRH
 REGION=                          

 STA NET COM L CR DIST AZM  AN P/S WT   SEC (TOBS -TCAL -DLY  =RES)  WT   SR  INFO  CAL  DUR-W-FMAG-T -AMP-U-PER-W-XMAG-T DE
 TU.HD3  HHZ   Z  24.7 300 152  P     14.97  9.30  9.08 0.00  0.22  1.30     0.312                                           
        S                       S     21.33 15.66 15.68 0.00 -0.02  1.30S    0.199                                           
 HR.TMR  HHZ   Z  29.9 235 147  P     15.07  9.40  9.41 0.00 -0.01  1.30     0.236                                           
 N.RKSH SHHZ   Z  41.0 218 138  S     23.51 17.84 17.77 0.00  0.07  1.30S    0.260                                           
 OHATA  SHHZ   Z  54.4 286 129  S     25.53 19.86 19.97 0.00 -0.11  1.30S    0.314                                           
 N.KUCH SHHZ   Z  57.3 268 127  S     26.29 20.62 20.48 0.00  0.14  1.29S    0.359                                           
 N.NHJH SHHZ   Z  65.4 228 122  S     28.18 22.51 22.00 0.00  0.51* 0.33S    0.024                                           
 TENMAB SHHZ   Z  73.0 225 118  S     29.05 23.38 23.46 0.00 -0.08  1.14S    0.323                                           
 KAYABE SHHZ   Z  88.4 323 112  S     32.28 26.61 26.61 0.00  0.00  0.88S    0.247                                           
 HU.ESH SHHZ   Z  89.2 322 112  S     32.25 26.58 26.77 0.00 -0.19  0.87S    0.235                                           
 TU.HSK  HHZ   Z  94.0 185 108  P     21.43 15.76 16.04 0.00 -0.28  0.77     0.219                                           
        S                       S     32.65 26.98 27.80 0.00 -0.82* 0.00S    0.000                                           
 N.TWWH SHHZ   Z  94.5 218 110  S     33.53 27.86 27.90 0.00 -0.04  0.76S    0.169                                           
 NANGO  SHHZ   Z  98.9 188 108  S     33.36 27.69 28.84 0.00 -1.15* 0.00S    0.000                                           
 N.KJNH  HHZ   Z 110.3 175 103  P     23.49 17.82 18.05 0.00 -0.23  0.44     0.096                                           
        S                       S     35.73 30.06 31.31 0.00 -1.25* 0.00S    0.000                                           
 *** SKIP BAD INPUT ARCHIVE CARD:
 200206030009464035 5135137E3845 6.81
1  3 JUN 2002,  0:09  SEQUENCE NO.    4, ID NO.         4
  FIX DEPTH FOR THIS EVENT
                                                        ADJUSTMENTS (KM)
  I ORIGIN   LAT N     LON W     Z   NWR  RMS    DT    DLAT   DLON    DZ    RR NF MOD
  1 46.67  35 55.07  137E32.42  6.81  11 1.20  0.293 -6.609 -8.110  0.00010.462 3 JMA
  2 46.96  35 51.50  137E37.82  6.81  11 0.54 -0.516  0.089 -0.469  0.000 0.477 3 JMA
  3 46.45  35 51.55  137E38.13  6.81  11 0.10 -0.056  0.009 -0.050  0.000 0.051 3 JMA
 BEGIN MAIN DISTANCE WEIGHTING
 BEGIN RESIDUAL WEIGHTING
  4 46.39  35 51.56  137E38.16  6.81  11 0.08 -0.004 -0.004 -0.004  0.000 0.006 3 JMA
  5 46.39  35 51.55  137E38.17  6.81  11 0.08 -0.001  0.002  0.003  0.000 0.003 3 JMA

              EIGENVALUES
