 HYPOINVERSE 2000
 6/2014 VERSION 1.40 (geoid depth possible)                            
 RUN ON Thu Nov 27 05:45:14 2025      RUN LABEL= 
 PROCESSING DOMAIN=NC  PROCESSING VERSION=01


 TEST PARAMETERS:
   -ITERATION AND CONVERGENCE-     -WEIGHTING AND ERRORS-     -MISCELLANEOUS-
       20=ITRLIM   0.900=DAMP    50.000=DISCUT   0.160=RMSCUT       4=MINSTA
    0.040=DQUIT    0.001=DRQT     1.000=DISW1    1.500=RMSW1        0=NET
    7.000=DXFIX    0.012=EIGTOL   3.000=DISW2    3.000=RMSW2 
   30.000=DZMAX    0.020=RBACK        4=ITRDIS       4=ITRRES   7.000=ZTR
    0.500=DZAIR    0.600=BACFAC   1.000=SWT      0.150=RDERR 
                                                 1.000=ERCOF

      ------DURATION MAG CONSTANTS------       -DELAYS & MISC-    -STATIONS-
   -5.200=FMA1    -0.905=FMA2   -1.0300=DMA0         F=LMULT        F=ATTEN
    3.890=FMB1     2.026=FMB2    2.1000=DMA1         T=CODAWT       5=SITE-LET
    0.013=FMZ1     0.013=FMZ2    0.0000=DMA2         F=LJUNK        1=NET-LET
    0.004=FMD1     0.004=FMD2    0.0000=DMZ                         0=COMP-LET
    0.000=FMF1     0.000=FMF2    1.0000=DMGN  
    0.000=FMGN   210.000=FMBRK   0.0027=DMLIN 
   0.0000=DCOF1    0.000=DBRK1        1=LOGA0 
   0.0000=DCOF2    0.000=DBRK2 
   0.0000=ZCOF     0.000=ZBRK  

    --- MAGNITUDE LABELS & COMPONENTS ---
    FMAG1: LABEL=   ALL COMPS=
    FMAG2: LABEL=    NO COMPS=
    XMAG1: LABEL=   ALL  TYPE=ALL  COMPS=
    XMAG2: LABEL=    NO  TYPE=ALL  COMPS=
    FMAG1 MAGSEL=1  FMAG2 MAGSEL=1

 INPUT FILES:
 COMMANDS:    hypinst                                                     
                                                                          
 STATIONS:    /workspace/data/station/stations_hypoinverse_with_das.sta   STATION FORMAT CODE= 3
 DELAYS:                                                                   
 ATTENUATIONS:                                                             
 CAL FACTORS:                                                              
 FMAG CORRECT:                                                             
 XMAG CORRECT:                                                             

 PHASES:       hypoinverse_input.arc                                       
        PHASE FORMAT CODE= 3, TERMINATOR FORMAT CODE=1
 HOMOGENEOUS LAYER CRUST 1:  /workspace/data/velocity/jma_crh/JMA2001A_P.crh             
 HOMOGENEOUS LAYER CRUST 2:  /workspace/data/velocity/jma_crh/JMA2001A_S.crh             

 OUTPUT FILES: (T IF APPENDED TO)
 (F) PRINTOUT:    hypoinverse_run.prt                                         
 (F) SUMMARY:     hypoinverse_run.sum                                         FORMAT CODE=1
 (F) ARCHIVE:     hypoinverse_run_out.arc                                     ARCHIVE FORMAT CODE= 1

1 15 FEB 2020, 13:18  SEQUENCE NO.    1, ID NO.         1
                                                        ADJUSTMENTS (KM)
  I ORIGIN   LAT N     LON W     Z   NWR  RMS    DT    DLAT   DLON    DZ    RR NF MOD
  1  9.45  35  5.59  140E 5.68 10.00  29 8.49  9.231 28.894 -7.471  0.00029.844 3 JMA
  2 18.68  35 21.18  140E10.62 10.00  29 5.15 -0.324 16.208 11.270  0.00019.742 3 JMA
  3 18.36  35 29.93  140E 3.15 10.00  29 3.23 -1.228  2.506  1.928  0.000 3.162 3 JMA
 FREE DEPTH
 BEGIN MAIN DISTANCE WEIGHTING
 BEGIN RESIDUAL WEIGHTING
  4 17.13  35 31.28  140E 1.87 10.00  27 0.91  0.375  3.292  0.431  0.000 3.320 3 JMA
  5 17.50  35 33.06  140E 1.59 10.00  27 0.35  0.008  0.381  0.067  0.000 0.387 3 JMA
  6 17.51  35 33.26  140E 1.54 10.00  27 0.34  0.001  0.040 -0.002  0.000 0.040 3 JMA
  7 17.51  35 33.28  140E 1.55 10.00  27 0.34 -0.001  0.005  0.004  0.000 0.007 3 JMA

              EIGENVALUES
     ( 6.243  1.155  0.886  0.000)
      EIGENVECTORS OF ADJUSTMENT                COVARIANCE             ERRORS
 OT  (-0.999  0.042 -0.029  0.000) (   0.004  -0.006   0.001   0.000)   0.062
 LAT (-0.051 -0.739  0.671  0.000) (  -0.006   0.136  -0.036   0.000)   0.368
 LON (-0.007 -0.672 -0.741  0.000) (   0.001  -0.036   0.143   0.000)   0.378
 Z   ( 0.000  0.000 -0.000  1.000) (   0.000   0.000   0.000 958.286)  30.956
 ERROR ELLIPSE: <SERR AZ DIP>-<  30.96   0 90>-<   0.42 228  0>-<   0.32 318  0>
 ------------------------------------------------------------------------------------
 YEAR MO DA  --ORIGIN--  --LAT N-  --LON W--  DEPTH-M RMS   ERH   ERZ  XMAG1 FMAG1 PMAG GEOID-DEP
 2020-02-15  1318 17.51  35 33.28  140E 1.55  10.00  0.34  0.42 30.96                      10.00
                                                                                          SOURCE
 NSTA NPHS  DMIN MODEL GAP ITR NFM NWR NWS NVR REMRKS-AVH  N.XMG-XMMAD-T   N.FMG-FMMAD-T  L F X
   29   29  15.9  JMAS 102   7   0  27   8  29      -                                          

 XMAG2-N.XMG2-XMMAD-T-S  FMAG2-N.FMG2-FMMAD-T-S  PREF.MAG-N.PMAG-PRMAD-T DEPDAT NS ZT TYP
                                                                              0  0  M CRH
 REGION=                          

 STA NET COM L CR DIST AZM  AN P/S WT   SEC (TOBS -TCAL -DLY  =RES)  WT   SR  INFO  CAL  DUR-W-FMAG-T -AMP-U-PER-W-XMAG-T DE
 D0564   HHZ   Z  15.9 107  90  P  3  20.83  3.32  3.29 0.62 -0.59* 0.48     0.011                                           
 D0609   HHZ   Z  15.9 107  90  P  3  20.83  3.32  3.29 0.60 -0.57* 0.48     0.016                                           
 D0537   HHZ   Z  15.9 107  90  P  3  20.85  3.34  3.29 0.63 -0.58* 0.48     0.990                                           
 D0538   HHZ   Z  15.9 107  90  P  3  20.85  3.34  3.29 0.63 -0.58* 0.48     0.011                                           
 D0637   HHZ   Z  15.9 107  90  P  3  20.85  3.34  3.29 0.58 -0.53* 0.48     0.011                                           
 D0367   HHZ   Z  15.9 107  90  P  3  20.86  3.35  3.29 0.72 -0.66* 0.48     0.011                                           
 D0512   HHZ   Z  15.9 107  90  P  3  20.86  3.35  3.29 0.64 -0.58* 0.48     0.011                                           
 D0336   HHZ   Z  15.9 107  90  P  3  20.87  3.36  3.29 0.73 -0.66* 0.48     0.011                                           
 D0342   HHZ   Z  15.9 107  90  P  3  20.87  3.36  3.29 0.73 -0.66* 0.48     0.011                                           
 D0659   HHZ   Z  15.9 107  90  P  3  20.87  3.36  3.29 0.57 -0.50* 0.48     0.011                                           
 D0697   HHZ   Z  15.9 107  90  P  3  20.87  3.36  3.29 0.55 -0.48  0.48     0.011                                           
 D0663   HHZ   Z  15.9 107  90  P  3  20.89  3.38  3.29 0.57 -0.48  0.48     0.011                                           
 D0421   HHZ   Z  15.9 107  90  P  3  20.93  3.42  3.29 0.69 -0.56* 0.48     0.011                                           
 D0308   HHZ   Z  15.9 107  90  P  3  20.95  3.44  3.29 0.75 -0.60* 0.48     0.011                                           
 N.CBAH  HHZ   Z  19.6  92  90  P  1  21.20  3.69  3.89 0.00 -0.20  1.19     0.080                                           
        S                       S  1  23.86  6.35  6.58 0.00 -0.23  1.19S    0.155                                           
 N.KOTH  HHZ   Z  20.3 289  90  P     21.33  3.82  4.00 0.00 -0.18  2.39     0.304                                           
        S                       S     24.31  6.80  6.78 0.00  0.02  2.39S    0.565                                           
 N.ICHH SHHZ   Z  21.4 141  90  S  1  25.56  8.05  7.09 0.00  0.96* 1.19S    0.096                                           
 N.SHMH  HHZ   Z  26.8   0  90  P  1  22.67  5.16  5.05 0.00  0.11  1.19     0.098                                           
        S                       S  1  26.59  9.08  8.58 0.00  0.50  1.19S    0.183                                           
 N.YROH SHHZ   Z  31.9 158  90  S     27.52 10.01  9.97 0.00  0.04  2.39S    0.382                                           
 N.NRTH SHHZ   Z  39.3  38  90  S  1  30.36 12.85 12.01 0.00  0.84* 1.19S    0.209                                           
 N.HSNH  HHZ   Z  44.2  84  90  P  1  25.06  7.55  7.84 0.00 -0.29  1.19     0.086                                           
        S                       S  1  30.66 13.15 13.35 0.00 -0.20  1.19S    0.168                                           
 N.KMWH  HHZ   Z  46.5 187  90  P  1  25.47  7.96  8.22 0.00 -0.26  1.19     0.056                                           
        S                       S     31.66 14.15 14.00 0.00  0.15  2.39S    0.464                                           
 N.KTUH SHHZ   Z  46.9 152  90  S  1  25.67  8.16 14.11 0.00 -5.95* 0.00S    0.000                                           
 N.KMSH  HHZ   Z  52.2 172  90  P  1  11.45 -6.06  9.13 0.00-15.19* 0.00     0.005                                           
 *** SKIP BAD INPUT ARCHIVE CARD:
 202002161946057135 1906140E140810.00
1 16 FEB 2020, 19:46  SEQUENCE NO.    2, ID NO.         2
                                                        ADJUSTMENTS (KM)
  I ORIGIN   LAT N     LON W     Z   NWR  RMS    DT    DLAT   DLON    DZ    RR NF MOD
  1  6.71  35 11.12  140E15.64 10.00  4010.31  9.997 14.201 -3.459  0.00014.616 3 JMA
  2 16.71  35 18.78  140E17.93 10.00  40 3.93  0.209 -0.119 -1.275  0.000 1.281 3 JMA
 FREE DEPTH
 AIRQUAKE PREVENTED
  3 16.92  35 18.72  140E18.77 10.00  40 3.91  0.028  0.283 -0.338 -5.000 5.019 4 JMA
 BEGIN MAIN DISTANCE WEIGHTING
 BEGIN RESIDUAL WEIGHTING
  4 16.94  35 18.87  140E18.99  5.00  36 1.89  1.438  6.090 -0.225  0.000 6.094 3 JMA
  5 18.38  35 22.16  140E19.14  5.00  35 1.09  0.215  1.638  1.169  0.000 2.012 3 JMA
  6 18.60  35 23.04  140E18.37  5.00  35 1.05  0.020  0.222  0.231  0.000 0.320 3 JMA
  7 18.62  35 23.16  140E18.22  5.00  35 1.05  0.007  0.051  0.083  0.000 0.097 3 JMA
  8 18.62  35 23.19  140E18.16  5.00  35 1.05  0.006  0.020  0.037  0.000 0.042 3 JMA
  9 18.63  35 23.20  140E18.14  5.00  35 1.05 -0.002  0.003 -0.003  0.000 0.004 3 JMA
 10 18.63  35 23.20  140E18.14  5.00  35 1.05  0.002  0.001  0.013  0.000 0.013 3 JMA

              EIGENVALUES
     ( 7.159  1.098  0.812  0.000)
      EIGENVECTORS OF ADJUSTMENT                COVARIANCE             ERRORS
 OT  (-0.995 -0.007  0.098  0.000) (   0.038   0.052   0.156   0.000)   0.195
 LAT ( 0.034 -0.960  0.278  0.000) (   0.052   0.985   0.201   0.000)   0.992
 LON ( 0.093  0.280  0.956  0.000) (   0.156   0.201   1.621   0.000)   1.273
 Z   ( 0.000 -0.000 -0.000  1.000) (   0.000   0.000   0.0007762.354)  88.104
 ERROR ELLIPSE: <SERR AZ DIP>-<  88.10   0 90>-<   1.30 287  0>-<   0.96  16  0>
 ------------------------------------------------------------------------------------
 YEAR MO DA  --ORIGIN--  --LAT N-  --LON W--  DEPTH-M RMS   ERH   ERZ  XMAG1 FMAG1 PMAG GEOID-DEP
 2020-02-16  1946 18.63  35 23.20  140E18.14   5.00  1.05  1.30 88.10                       5.00
                                                                                          SOURCE
 NSTA NPHS  DMIN MODEL GAP ITR NFM NWR NWS NVR REMRKS-AVH  N.XMG-XMMAD-T   N.FMG-FMMAD-T  L F X
   40   40  11.8  JMAS 132  10   0  35   7  40      -                                          

 XMAG2-N.XMG2-XMMAD-T-S  FMAG2-N.FMG2-FMMAD-T-S  PREF.MAG-N.PMAG-PRMAD-T DEPDAT NS ZT TYP
                                                                              0  0  M CRH
 REGION=                          

 STA NET COM L CR DIST AZM  AN P/S WT   SEC (TOBS -TCAL -DLY  =RES)  WT   SR  INFO  CAL  DUR-W-FMAG-T -AMP-U-PER-W-XMAG-T DE
 N.ICHH  HHZ   Z  11.8 280  90  P  1  22.53  3.90  2.40 0.00  1.50* 1.30     0.052                                           
        S                       S  1  28.36  9.73  4.06 0.00  5.67* 0.00S    0.000                                           
 D0698   HHZ   Z  17.0 325  90  P  3  22.93  4.30  3.27 0.55  0.48  0.52     0.008                                           
 D0671   HHZ   Z  17.0 325  90  P  3  22.98  4.35  3.27 0.56  0.52* 0.52     0.008                                           
 D0562   HHZ   Z  17.0 325  90  P  3  23.01  4.38  3.27 0.62  0.49  0.52     0.008                                           
 D0563   HHZ   Z  17.0 325  90  P  3  23.01  4.38  3.27 0.62  0.49  0.52     0.008                                           
 D0661   HHZ   Z  17.0 325  90  P  3  23.04  4.41  3.27 0.57  0.57* 0.52     0.008                                           
 D0501   HHZ   Z  17.0 325  90  P  3  23.05  4.42  3.27 0.65  0.50* 0.52     0.008                                           
 D0593   HHZ   Z  17.0 325  90  P  3  23.07  4.44  3.27 0.60  0.57* 0.52     0.008                                           
 D0613   HHZ   Z  17.0 325  90  P  3  23.07  4.44  3.27 0.59  0.58* 0.52     0.008                                           
 D0464   HHZ   Z  17.0 325  90  P  3  23.12  4.49  3.27 0.67  0.55* 0.52     0.008                                           
 D0437   HHZ   Z  17.0 325  90  P  3  23.14  4.51  3.27 0.68  0.56* 0.52     0.008                                           
 D0438   HHZ   Z  17.0 325  90  P  3  23.14  4.51  3.27 0.68  0.56* 0.52     0.008                                           
 D0377   HHZ   Z  17.0 325  90  P  3  23.16  4.53  3.27 0.71  0.55* 0.52     0.008                                           
 D0388   HHZ   Z  17.0 325  90  P  3  23.18  4.55  3.27 0.71  0.57* 0.52     0.008                                           
 D0262   HHZ   Z  17.0 325  90  P  3  23.21  4.58  3.27 0.77  0.54* 0.52     0.008                                           
 D0275   HHZ   Z  17.0 325  90  P  3  23.23  4.60  3.27 0.76  0.57* 0.52     0.008                                           
 D0321   HHZ   Z  17.0 325  90  P  3  23.23  4.60  3.27 0.74  0.59* 0.52     0.008                                           
 D0347   HHZ   Z  17.0 325  90  P  3  23.24  4.61  3.27 0.73  0.61* 0.52     0.008                                           
 D0237   HHZ   Z  17.0 325  90  P  3  23.25  4.62  3.27 0.78  0.57* 0.52     0.008                                           
 D0200   HHZ   Z  17.0 325  90  P  3  23.26  4.63  3.27 0.80  0.56* 0.52     0.008                                           
 D0292   HHZ   Z  17.0 325  90  P  3  23.26  4.63  3.27 0.75  0.61* 0.52     0.008                                           
 N.YROH  HHZ   Z  17.5 231  90  P     21.94  3.31  3.36 0.00 -0.05  2.59     0.811                                           
        S                       S  1  26.32  7.69  5.70 0.00  1.99* 1.30S    0.153                                           
 N.CBAH  HHZ   Z  18.5 343  90  P  1  22.69  4.06  3.52 0.00  0.54* 1.30     0.058                                           
        S                       S  1  27.68  9.05  5.97 0.00  3.08* 1.27S    0.114                                           
 N.KTUH  HHZ   Z  23.1 189  90  P  1   8.71 -9.92  4.31 0.00-14.23* 0.00     0.132                                           
        S                       S  1  14.74 -3.89  7.31 0.00-11.20* 0.00S    0.001                                           
 N.KT2H  HHZ   Z  24.1 171  90  P  1  22.62  3.99  4.48 0.00 -0.49  1.30     0.158                                           
        S                       S  1  27.63  9.00  7.59 0.00  1.41* 1.30S    0.285                                           
 N.HSNH  HHZ   Z  29.8  39  90  P     23.52  4.89  5.43 0.00 -0.54* 2.59     0.526                                           
        S                       S  1  28.79 10.16  9.22 0.00  0.94* 1.30S    0.238                                           
 N.FUTH SHHZ   Z  40.9 264  90  S  1  17.01 -1.62 12.41 0.00-14.03* 0.00S    0.117                                           
 N.KMWH  HHZ   Z  41.3 229  90  P     24.87  6.24  7.37 0.00 -1.13* 2.59     0.321                                           
        S                       S  1  32.52 13.89 12.51 0.00  1.38* 1.30S    0.155                                           
 N.NRTH SHHZ   Z  49.3   0  90  S  1  26.48  7.85 14.81 0.00 -6.96* 0.00S    0.000                                           
 N.KOTH  HHZ   Z  51.0 300  90  P  1  26.09  7.46  9.01 0.00 -1.55* 1.30     0.048                                           
        S                       S     33.47 14.84 15.30 0.00 -0.46  2.59S    0.493                                           
 N.SHMH  HHZ   Z  52.2 331  90  P  1  26.56  7.93  9.22 0.00 -1.29* 1.30     0.052                                           
        S                       S  1  33.82 15.19 15.65 0.00 -0.46  1.30S    0.115                                           
 *** SKIP BAD INPUT ARCHIVE CARD:
 202002170001516435 3550140E166310.00
1 17 FEB 2020,  0:01  SEQUENCE NO.    3, ID NO.         3
                                                        ADJUSTMENTS (KM)
  I ORIGIN   LAT N     LON W     Z   NWR  RMS    DT    DLAT   DLON    DZ    RR NF MOD
  1 52.64  35 35.96  140E30.34 10.00  21 2.57  0.261-11.704 13.429  0.00017.814 3 JMA
  2 52.90  35 29.64  140E21.44 10.00  21 2.05 -1.413 -3.136 -3.883  0.000 4.991 3 JMA
 FREE DEPTH
  3 51.49  35 27.95  140E24.01 10.00  21 1.58 -0.382 -1.425 -1.445  0.000 2.030 3 JMA
 BEGIN MAIN DISTANCE WEIGHTING
 BEGIN RESIDUAL WEIGHTING
  4 51.11  35 27.18  140E24.97 10.00  21 1.44 -0.303 -0.417 -2.514  0.000 2.549 3 JMA
  5 50.80  35 26.96  140E26.63 10.00  21 1.33 -0.176 -0.004 -2.105  0.000 2.105 3 JMA
  6 50.63  35 26.96  140E28.03 10.00  20 1.33 -0.068 -0.034 -1.056  0.000 1.057 3 JMA
  7 50.56  35 26.94  140E28.73 10.00  20 1.33  0.009  0.063 -0.101  0.000 0.119 3 JMA
  8 50.57  35 26.97  140E28.80 10.00  20 1.33 -0.009 -0.006 -0.165  0.000 0.165 3 JMA

              EIGENVALUES
     ( 6.169  0.762  0.358  0.000)
      EIGENVECTORS OF ADJUSTMENT                COVARIANCE             ERRORS
 OT  (-0.988  0.131  0.088  0.000) (   0.208   0.635   1.119   0.000)   0.456
 LAT ( 0.146  0.968  0.202  0.000) (   0.635   3.482   2.132   0.000)   1.866
 LON ( 0.059 -0.212  0.975  0.000) (   1.119   2.132  13.510   0.000)   3.676
 Z   ( 0.000  0.000 -0.000  1.000) (   0.000   0.000   0.000********) 111.806
 ERROR ELLIPSE: <SERR AZ DIP>-<  99.00   0 90>-<   3.73 282  0>-<   1.75  11  0>
 ------------------------------------------------------------------------------------
 YEAR MO DA  --ORIGIN--  --LAT N-  --LON W--  DEPTH-M RMS   ERH   ERZ  XMAG1 FMAG1 PMAG GEOID-DEP
 2020-02-17  0001 50.57  35 26.97  140E28.80  10.00  1.33  3.73 99.00                      10.00
                                                                                          SOURCE
 NSTA NPHS  DMIN MODEL GAP ITR NFM NWR NWS NVR REMRKS-AVH  N.XMG-XMMAD-T   N.FMG-FMMAD-T  L F X
   21   21  16.3  JMAS 194   8   0  20   3  21      -                                          

 XMAG2-N.XMG2-XMMAD-T-S  FMAG2-N.FMG2-FMMAD-T-S  PREF.MAG-N.PMAG-PRMAD-T DEPDAT NS ZT TYP
                                                                              0  0  M CRH
 REGION=                          

 STA NET COM L CR DIST AZM  AN P/S WT   SEC (TOBS -TCAL -DLY  =RES)  WT   SR  INFO  CAL  DUR-W-FMAG-T -AMP-U-PER-W-XMAG-T DE
 N.HSNH  HHZ   Z  16.3   9  90  P     54.64  4.07  3.36 0.00  0.71* 3.01     0.716                                           
        S                       S  1  60.26  9.69  5.67 0.00  4.02* 0.00S    0.000                                           
 D0643   HHZ   Z  27.0 285  90  P  3  58.38  7.81  5.07 0.58  2.16* 0.60     0.071                                           
 D0687   HHZ   Z  27.0 285  90  P  3  58.38  7.81  5.07 0.56  2.18* 0.60     0.969                                           
 D0541   HHZ   Z  27.0 285  90  P  3  58.40  7.83  5.07 0.63  2.13* 0.60     0.034                                           
 D0586   HHZ   Z  27.0 285  90  P  3  58.40  7.83  5.07 0.61  2.15* 0.60     0.034                                           
 D0612   HHZ   Z  27.0 285  90  P  3  58.41  7.84  5.07 0.59  2.18* 0.60     0.033                                           
 D0625   HHZ   Z  27.0 285  90  P  3  58.42  7.85  5.07 0.59  2.19* 0.59     0.033                                           
