 HYPOINVERSE 2000
 6/2014 VERSION 1.40 (geoid depth possible)                            
 RUN ON Sat Nov 22 08:33:21 2025      RUN LABEL= 
 PROCESSING DOMAIN=NC  PROCESSING VERSION=01


 TEST PARAMETERS:
   -ITERATION AND CONVERGENCE-     -WEIGHTING AND ERRORS-     -MISCELLANEOUS-
       20=ITRLIM   0.900=DAMP    50.000=DISCUT   0.160=RMSCUT       4=MINSTA
    0.040=DQUIT    0.001=DRQT     1.000=DISW1    1.500=RMSW1        0=NET
    7.000=DXFIX    0.012=EIGTOL   3.000=DISW2    3.000=RMSW2 
   30.000=DZMAX    0.020=RBACK        4=ITRDIS       4=ITRRES   7.000=ZTR
    0.500=DZAIR    0.600=BACFAC   1.000=SWT      0.150=RDERR 
                                                 1.000=ERCOF

      ------DURATION MAG CONSTANTS------       -DELAYS & MISC-    -STATIONS-
   -5.200=FMA1    -0.905=FMA2   -1.0300=DMA0         F=LMULT        F=ATTEN
    3.890=FMB1     2.026=FMB2    2.1000=DMA1         T=CODAWT       5=SITE-LET
    0.013=FMZ1     0.013=FMZ2    0.0000=DMA2         F=LJUNK        1=NET-LET
    0.004=FMD1     0.004=FMD2    0.0000=DMZ                         3=COMP-LET
    0.000=FMF1     0.000=FMF2    1.0000=DMGN  
    0.000=FMGN   210.000=FMBRK   0.0027=DMLIN 
   0.0000=DCOF1    0.000=DBRK1        1=LOGA0 
   0.0000=DCOF2    0.000=DBRK2 
   0.0000=ZCOF     0.000=ZBRK  

    --- MAGNITUDE LABELS & COMPONENTS ---
    FMAG1: LABEL=   ALL COMPS=
    FMAG2: LABEL=    NO COMPS=
    XMAG1: LABEL=   ALL  TYPE=ALL  COMPS=
    XMAG2: LABEL=    NO  TYPE=ALL  COMPS=
    FMAG1 MAGSEL=1  FMAG2 MAGSEL=1

 INPUT FILES:
 COMMANDS:    hypinst                                                     
                                                                          
 STATIONS:    /workspace/data/station/stations_hypoinverse.sta            STATION FORMAT CODE= 3
 DELAYS:                                                                   
 ATTENUATIONS:                                                             
 CAL FACTORS:                                                              
 FMAG CORRECT:                                                             
 XMAG CORRECT:                                                             

 PHASES:       hypoinverse_input.arc                                       
        PHASE FORMAT CODE= 3, TERMINATOR FORMAT CODE=1
 HOMOGENEOUS LAYER CRUST 1:  /workspace/data/velocity/jma_crh/JMA2001A_P.crh             
 HOMOGENEOUS LAYER CRUST 2:  /workspace/data/velocity/jma_crh/JMA2001A_S.crh             

 OUTPUT FILES: (T IF APPENDED TO)
 (F) PRINTOUT:    hypoinverse_run.prt                                         
 (F) SUMMARY:     hypoinverse_run.sum                                         FORMAT CODE=1
 (F) ARCHIVE:     hypoinverse_run_out.arc                                     ARCHIVE FORMAT CODE= 1

1  3 JUN 2002,  0:02  SEQUENCE NO.    1, ID NO.         1
                                                        ADJUSTMENTS (KM)
  I ORIGIN   LAT N     LON W     Z   NWR  RMS    DT    DLAT   DLON    DZ    RR NF MOD
  1 31.03  34 49.30  134E48.18 13.00  37 2.46 -0.944-12.607 -5.364  0.00013.701 3 JMA
  2 30.09  34 42.50  134E51.70 13.00  37 0.53 -0.472 -1.234 -0.965  0.000 1.567 3 JMA
 FREE DEPTH
  3 29.61  34 41.83  134E52.33 13.00  37 0.19 -0.034 -0.114 -0.107 -0.300 0.338 4 JMA
 BEGIN MAIN DISTANCE WEIGHTING
 BEGIN RESIDUAL WEIGHTING
  4 29.58  34 41.77  134E52.40 12.70  36 0.15  0.076  0.253  0.084 -0.589 0.646 4 JMA
  5 29.66  34 41.91  134E52.35 12.11  34 0.13  0.013  0.045  0.005 -0.097 0.107 4 JMA
  6 29.67  34 41.93  134E52.35 12.01  34 0.13  0.004  0.011 -0.002 -0.040 0.041 4 JMA

              EIGENVALUES
     ( 6.211  0.929  0.806  0.226)
      EIGENVECTORS OF ADJUSTMENT                COVARIANCE             ERRORS
 OT  (-0.994 -0.086  0.059  0.046) (   0.003   0.007   0.000  -0.035)   0.057
 LAT ( 0.106 -0.805  0.581  0.052) (   0.007   0.053  -0.006  -0.038)   0.231
 LON ( 0.004 -0.583 -0.812  0.023) (   0.000  -0.006   0.057  -0.017)   0.239
 Z   (-0.040 -0.060  0.014 -0.997) (  -0.035  -0.038  -0.017   0.779)   0.883
 ERROR ELLIPSE: <SERR AZ DIP>-<   0.88 155 86>-<   0.25 236  0>-<   0.22 325  3>
 ------------------------------------------------------------------------------------
 YEAR MO DA  --ORIGIN--  --LAT N-  --LON W--  DEPTH-M RMS   ERH   ERZ  XMAG1 FMAG1 PMAG GEOID-DEP
 2002-06-03  0002 29.67  34 41.93  134E52.35  12.01  0.13  0.25  0.88                      12.01
                                                                                          SOURCE
 NSTA NPHS  DMIN MODEL GAP ITR NFM NWR NWS NVR REMRKS-AVH  N.XMG-XMMAD-T   N.FMG-FMMAD-T  L F X
   37   37  14.3  JMAS 101   6   0  34  19  37                                                 

 XMAG2-N.XMG2-XMMAD-T-S  FMAG2-N.FMG2-FMMAD-T-S  PREF.MAG-N.PMAG-PRMAD-T DEPDAT NS ZT TYP
                                                                              0  0  M CRH
 REGION=                          

 STA NET COM L CR DIST AZM  AN P/S WT   SEC (TOBS -TCAL -DLY  =RES)  WT   SR  INFO  CAL  DUR-W-FMAG-T -AMP-U-PER-W-XMAG-T DE
 N.KKGH  HHZ   Z  14.3 336 124  P     33.03  3.36  3.26 0.00  0.10  1.08     0.097                                           
        S                       S     35.26  5.59  5.55 0.00  0.04  1.08S    0.407                                           
 DP.TOS  HHZ   Z  17.9 157 116  P  1  33.42  3.75  3.76 0.00 -0.01  0.81     0.069                                           
        S                       S     35.82  6.15  6.39 0.00 -0.24  1.08S    0.305                                           
 MIKI    HHZ   Z  20.5  52 112  P     33.97  4.30  4.14 0.00  0.16  1.08     0.061                                           
        S                       S     36.99  7.32  7.03 0.00  0.29  0.97S    0.167                                           
 GS.IKH SHHZ   Z  20.6 173 113  S     36.67  7.00  7.07 0.00 -0.07  1.08S    0.274                                           
 N.TJOH  HHZ   Z  30.3  39 101  P     35.38  5.71  5.64 0.00  0.07  1.08     0.051                                           
        S                       S     39.20  9.53  9.59 0.00 -0.06  1.08S    0.113                                           
 DP.IZT SHHZ   Z  30.7   2 102  S     39.45  9.78  9.71 0.00  0.07  1.08S    0.087                                           
 KASAI   HHZ   Z  32.0 355 100  P     35.59  5.92  5.91 0.00  0.01  1.08     0.036                                           
        S                       S     39.75 10.08 10.05 0.00  0.03  1.08S    0.081                                           
 N.AIOH  HHZ   Z  37.5 287  97  P     36.65  6.98  6.78 0.00  0.20  1.08     0.083                                           
        S                       S     41.05 11.38 11.55 0.00 -0.17  1.08S    0.143                                           
 N.SGUH  HHZ   Z  39.7 311  96  P     36.99  7.32  7.14 0.00  0.18  1.08     0.061                                           
        S                       S     41.76 12.09 12.16 0.00 -0.07  1.08S    0.100                                           
 N.YMSH  HHZ   Z  41.3 334  96  P     37.12  7.45  7.40 0.00  0.05  1.08     0.047                                           
        S                       S     42.05 12.38 12.61 0.00 -0.23  1.08S    0.075                                           
 N.KAMH SHHZ   Z  44.7   3  95  S     43.05 13.38 13.52 0.00 -0.14  1.08S    0.075                                           
 N.KNHH  HHZ   Z  47.6  94  94  P     38.03  8.36  8.40 0.00 -0.04  1.08     0.116                                           
        S                       S     43.52 13.85 14.31 0.00 -0.46  0.01S    0.000                                           
 DP.TNJ  HHZ   Z  48.4  39  94  P     38.30  8.63  8.53 0.00  0.10  1.08     0.068                                           
        S                       S     44.10 14.43 14.54 0.00 -0.11  1.08S    0.112                                           
 N.WKYH SHHZ   Z  49.2 158  94  S     44.52 14.85 14.77 0.00  0.08  1.08S    0.258                                           
 N.TJRH  HHZ   Z  50.4 131  94  P     38.34  8.67  8.85 0.00 -0.18  1.08     0.149                                           
        S                       S     44.15 14.48 15.09 0.00 -0.61* 0.00S    0.000                                           
 N.KMGH  HHZ   Z  54.5 295  93  P     39.30  9.63  9.52 0.00  0.11  1.08     0.085                                           
        S                       S     45.75 16.08 16.23 0.00 -0.15  1.08S    0.133                                           
 N.HNSH  HHZ   Z  54.9 274  93  P     39.48  9.81  9.57 0.00  0.24  1.07     0.110                                           
        S                       S     45.56 15.89 16.32 0.00 -0.43  0.06S    0.000                                           
 N.SSYH SHHZ   Z  55.7  42  93  S     46.17 16.50 16.54 0.00 -0.04  1.07S    0.119                                           
 N.NKOH  HHZ   Z  57.9 315  93  P     39.85 10.18 10.06 0.00  0.12  1.06     0.065                                           
        S                       S     46.78 17.11 17.16 0.00 -0.05  1.06S    0.097                                           
 DP.HMT SHHZ   Z  60.9  14  93  S     47.46 17.79 17.97 0.00 -0.18  1.05S    0.085                                           
 DP.YGI  HHZ   Z  71.4  54  92  P     41.96 12.29 12.22 0.00  0.07  0.96     0.071                                           
        S                       S     50.52 20.85 20.86 0.00 -0.01  0.96S    0.116                                           
 DP.OYT SHHZ   Z  72.0 345  92  S     50.62 20.95 21.05 0.00 -0.10  0.96S    0.062                                           
 *** SKIP BAD INPUT ARCHIVE CARD:
 200206030003564624 3773121E529248.00
1  3 JUN 2002,  0:04  SEQUENCE NO.    2, ID NO.         2
                                                        ADJUSTMENTS (KM)
  I ORIGIN   LAT N     LON W     Z   NWR  RMS    DT    DLAT   DLON    DZ    RR NF MOD
 CURB DISTANCE STEP. ALL ADJUSTMENTS DAMPED BY 0.979
  1 12.93  24 28.33  123E 0.38 48.00  14 5.25 -5.002 23.251 44.265  0.00050.000 3 JMA
 CURB DISTANCE STEP. ALL ADJUSTMENTS DAMPED BY 0.994
  2  7.93  24 40.88  122E34.09 48.00  14 2.97 -8.603  9.439 49.101  0.00050.000 3 JMA
  3 -0.68  24 45.97  122E 4.91 48.00  14 0.78 -1.774-13.732 12.605  0.00018.640 3 JMA
 BEGIN MAIN DISTANCE WEIGHTING
 BEGIN RESIDUAL WEIGHTING
  4 -2.45  24 38.56  121E57.43 48.00  14 0.38 -0.782  0.360  4.005  0.000 4.021 3 JMA
 FREE DEPTH
  5 -3.23  24 38.75  121E55.05 48.00  12 0.26 -0.065  0.660  0.577  2.491 2.641 4 JMA
  6 -3.30  24 39.11  121E54.71 50.49  12 0.23 -0.066  2.451 -0.237  3.145 3.994 4 JMA
  7 -3.36  24 40.43  121E54.85 53.64  12 0.20 -0.074  3.003 -0.265 -0.577 3.069 4 JMA
  8 -3.44  24 42.05  121E55.01 53.06  12 0.19 -0.012  1.000 -0.187 -0.198 1.036 4 JMA
  9 -3.45  24 42.59  121E55.12 52.86  12 0.19 -0.006  0.288 -0.033 -0.074 0.299 4 JMA

              EIGENVALUES
     ( 3.617  0.169  0.045  0.033)
      EIGENVECTORS OF ADJUSTMENT                COVARIANCE             ERRORS
 OT  (-0.987  0.163  0.006  0.008) (   0.062  -0.258  -0.328   0.338)   0.250
 LAT (-0.031 -0.172  0.647 -0.743) (  -0.258  37.732  -4.955 -11.463)   6.143
 LON (-0.160 -0.964 -0.207  0.049) (  -0.328  -4.955   3.123  -2.186)   1.767
 Z   (-0.010 -0.122  0.734  0.668) (   0.338 -11.463  -2.186  35.786)   5.982
 ERROR ELLIPSE: <SERR AZ DIP>-<   6.95 184 41>-<   5.13  17 47>-<   1.40 280  7>
 ------------------------------------------------------------------------------------
 YEAR MO DA  --ORIGIN--  --LAT N-  --LON W--  DEPTH-M RMS   ERH   ERZ  XMAG1 FMAG1 PMAG GEOID-DEP
 2002-06-03  0003 56.55  24 42.59  121E55.12  52.86  0.19  5.18  4.65                      52.86
                                                                                          SOURCE
 NSTA NPHS  DMIN MODEL GAP ITR NFM NWR NWS NVR REMRKS-AVH  N.XMG-XMMAD-T   N.FMG-FMMAD-T  L F X
   14   14 113.9  JMAS 338   9   0  12   4  14                                                 

 XMAG2-N.XMG2-XMMAD-T-S  FMAG2-N.FMG2-FMMAD-T-S  PREF.MAG-N.PMAG-PRMAD-T DEPDAT NS ZT TYP
                                                                              0  0  M CRH
 REGION=                          

 STA NET COM L CR DIST AZM  AN P/S WT   SEC (TOBS -TCAL -DLY  =RES)  WT   SR  INFO  CAL  DUR-W-FMAG-T -AMP-U-PER-W-XMAG-T DE
 YONAGU  HHZ   Z 113.9 103  98  P     74.93 18.38 18.43 0.00 -0.05  1.11     0.291                                           
        S                       S     88.53 31.98 31.95 0.00  0.03  1.11S    0.873                                           
 IRIOMH  HHZ   Z 188.7 100  91  P     84.38 27.83 27.99 0.00 -0.16  1.11     0.163                                           
        S                       S    105.59 49.04 48.82 0.00  0.22  1.11S    0.308                                           
 HATOMA  HHZ   Z 194.7  97  91  P     85.24 28.69 28.76 0.00 -0.07  1.11     0.229                                           
        S                       S    106.53 49.98 50.18 0.00 -0.20  1.11S    0.443                                           
 HATERS  HHZ   Z 204.3 110  91  P     86.62 30.07 29.99 0.00  0.08  1.11     0.537                                           
 KUROSH  HHZ   Z 218.1 103  91  P     88.51 31.96 31.75 0.00  0.21  1.10     0.180                                           
        S                       S    111.98 55.43 55.48 0.00 -0.05  1.10S    0.477                                           
 ISHIG2  HHZ   Z 228.6  99  91  P     89.39 32.84 33.10 0.00 -0.26  1.08     0.168                                           
        S                       S    113.28 56.73 57.87 0.00 -1.14* 0.00S    0.000                                           
 TARAMA  HHZ   Z 282.2  90  90  P     97.27 40.72 40.00 0.00  0.72* 0.32     0.055                                           
 IKEMA   HHZ   Z 337.6  85  90  P    105.21 48.66 47.04 0.00  1.62* 0.00     0.000                                           
 OKIGUS  HHZ   Z 353.0  88  90  P    106.09 49.54 49.01 0.00  0.53* 0.62     0.269                                           
 *** SKIP BAD INPUT ARCHIVE CARD:
 200206030009057241 1457141E410455.70
1  3 JUN 2002,  0:09  SEQUENCE NO.    3, ID NO.         3
                                                        ADJUSTMENTS (KM)
  I ORIGIN   LAT N     LON W     Z   NWR  RMS    DT    DLAT   DLON    DZ    RR NF MOD
  1 12.97  41 22.30  141E24.58 55.70  16 7.69 -6.247-11.534-24.215  0.00026.821 3 JMA
  2  6.72  41 16.08  141E41.96 55.70  16 1.59 -1.369 -1.770 -1.368  0.000 2.237 3 JMA
 FREE DEPTH
  3  5.35  41 15.12  141E42.95 55.70  16 0.38 -0.234 -0.171  0.301  1.314 1.359 4 JMA
 BEGIN MAIN DISTANCE WEIGHTING
 BEGIN RESIDUAL WEIGHTING
  4  5.12  41 15.03  141E42.73 57.01  16 0.28  0.181  0.513  1.593  0.165 1.682 4 JMA
  5  5.30  41 15.31  141E41.59 57.18  14 0.19  0.193  0.400  1.317 -0.360 1.423 4 JMA
  6  5.49  41 15.52  141E40.64 56.82  13 0.14  0.061 -0.006  0.533 -0.055 0.536 4 JMA
  7  5.55  41 15.52  141E40.26 56.76  13 0.13  0.005 -0.036  0.111  0.019 0.118 4 JMA
  8  5.56  41 15.50  141E40.18 56.78  13 0.13 -0.001 -0.006 -0.015 -0.009 0.018 4 JMA

              EIGENVALUES
     ( 3.877  0.365  0.193  0.145)
      EIGENVECTORS OF ADJUSTMENT                COVARIANCE             ERRORS
 OT  (-0.986 -0.010  0.149 -0.072) (   0.035  -0.020   0.080  -0.179)   0.186
 LAT (-0.013 -0.989 -0.149 -0.001) (  -0.020   0.304  -0.097   0.043)   0.552
 LON ( 0.104 -0.135  0.889  0.425) (   0.080  -0.097   1.138   0.319)   1.067
 Z   (-0.128  0.062 -0.407  0.902) (  -0.179   0.043   0.319   1.637)   1.279
 ERROR ELLIPSE: <SERR AZ DIP>-<   1.34 270 63>-<   1.00  80 25>-<   0.54 173  3>
 ------------------------------------------------------------------------------------
 YEAR MO DA  --ORIGIN--  --LAT N-  --LON W--  DEPTH-M RMS   ERH   ERZ  XMAG1 FMAG1 PMAG GEOID-DEP
 2002-06-03  0009  5.56  41 15.50  141E40.18  56.78  0.13  0.90  1.20                      56.78
                                                                                          SOURCE
 NSTA NPHS  DMIN MODEL GAP ITR NFM NWR NWS NVR REMRKS-AVH  N.XMG-XMMAD-T   N.FMG-FMMAD-T  L F X
   16   16  24.5  JMAS 211   8   0  13   9  16                                                 

 XMAG2-N.XMG2-XMMAD-T-S  FMAG2-N.FMG2-FMMAD-T-S  PREF.MAG-N.PMAG-PRMAD-T DEPDAT NS ZT TYP
                                                                              0  0  M CRH
 REGION=                          

 STA NET COM L CR DIST AZM  AN P/S WT   SEC (TOBS -TCAL -DLY  =RES)  WT   SR  INFO  CAL  DUR-W-FMAG-T -AMP-U-PER-W-XMAG-T DE
 TU.HD3  HHZ   Z  24.5 300 153  P     14.97  9.41  9.19 0.00  0.22  1.31     0.314                                           
        S                       S     21.33 15.77 15.88 0.00 -0.11  1.31S    0.622                                           
 HR.TMR  HHZ   Z  29.7 234 148  P     15.07  9.51  9.51 0.00  0.00  1.31     0.247                                           
 N.RKSH SHHZ   Z  40.8 218 139  S     23.51 17.95 17.93 0.00  0.02  1.31S    0.431                                           
 OHATA  SHHZ   Z  54.2 286 130  S     25.53 19.97 20.08 0.00 -0.11  1.31S    0.313                                           
 N.KUCH SHHZ   Z  57.1 268 128  S     26.29 20.73 20.59 0.00  0.14  1.30S    0.359                                           
 N.NHJH SHHZ   Z  65.3 228 123  S     28.18 22.62 22.09 0.00  0.53* 0.23S    0.011                                           
 TENMAB SHHZ   Z  72.8 225 119  S     29.05 23.49 23.55 0.00 -0.06  1.15S    0.351                                           
 KAYABE SHHZ   Z  88.2 323 113  S     32.28 26.72 26.67 0.00  0.05  0.89S    0.327                                           
 HU.ESH SHHZ   Z  89.0 322 113  S     32.25 26.69 26.84 0.00 -0.15  0.88S    0.318                                           
 TU.HSK  HHZ   Z  94.0 185 109  P     21.43 15.87 16.09 0.00 -0.22  0.78     0.328                                           
        S                       S     32.65 27.09 27.88 0.00 -0.79* 0.00S    0.000                                           
 N.TWWH SHHZ   Z  94.4 218 111  S     33.53 27.97 27.96 0.00  0.01  0.77S    0.232                                           
 NANGO  SHHZ   Z  98.9 188 109  S     33.36 27.80 28.92 0.00 -1.12* 0.00S    0.000                                           
 N.KJNH  HHZ   Z 110.3 174 104  P     23.49 17.93 18.09 0.00 -0.16  0.45     0.141                                           
        S                       S     35.73 30.17 31.38 0.00 -1.21* 0.00S    0.000                                           
 *** SKIP BAD INPUT ARCHIVE CARD:
 200206030009464035 5135137E3845 6.81
1  3 JUN 2002,  0:09  SEQUENCE NO.    4, ID NO.         4
                                                        ADJUSTMENTS (KM)
  I ORIGIN   LAT N     LON W     Z   NWR  RMS    DT    DLAT   DLON    DZ    RR NF MOD
  1 46.67  35 55.07  137E32.42  6.81  11 1.20  0.293 -6.609 -8.110  0.00010.462 3 JMA
  2 46.96  35 51.50  137E37.82  6.81  11 0.54 -0.516  0.089 -0.469  0.000 0.477 3 JMA
 FREE DEPTH
  3 46.45  35 51.55  137E38.13  6.81  11 0.10 -0.063  0.079  0.011  0.354 0.363 4 JMA
 BEGIN MAIN DISTANCE WEIGHTING
 BEGIN RESIDUAL WEIGHTING
  4 46.38  35 51.59  137E38.12  7.16  11 0.08 -0.006 -0.004  0.002  0.011 0.012 4 JMA
  5 46.38  35 51.59  137E38.12  7.17  11 0.08  0.000  0.002  0.003  0.016 0.017 4 JMA

              EIGENVALUES
     ( 3.344  0.503  0.404  0.100)
      EIGENVECTORS OF ADJUSTMENT                COVARIANCE             ERRORS
 OT  (-0.995  0.010  0.102  0.022) (   0.006  -0.012   0.005  -0.062)   0.075
 LAT (-0.007 -0.976  0.070 -0.206) (  -0.012   0.225   0.108   0.526)   0.475
 LON ( 0.096  0.109  0.971 -0.189) (   0.005   0.108   0.264   0.471)   0.513
 Z   (-0.040  0.188 -0.203 -0.960) (  -0.062   0.526   0.471   2.570)   1.603
 ERROR ELLIPSE: <SERR AZ DIP>-<   1.67 317 73>-<   0.41  95 11>-<   0.33 186 10>
