 HYPOINVERSE 2000
 6/2014 VERSION 1.40 (geoid depth possible)                            
 RUN ON Wed Dec  3 01:02:24 2025      RUN LABEL= 
 PROCESSING DOMAIN=NC  PROCESSING VERSION=01


 TEST PARAMETERS:
   -ITERATION AND CONVERGENCE-     -WEIGHTING AND ERRORS-     -MISCELLANEOUS-
       20=ITRLIM   0.900=DAMP    50.000=DISCUT   0.160=RMSCUT       4=MINSTA
    0.040=DQUIT    0.001=DRQT     1.000=DISW1    1.500=RMSW1        0=NET
    7.000=DXFIX    0.012=EIGTOL   3.000=DISW2    3.000=RMSW2 
   30.000=DZMAX    0.020=RBACK        4=ITRDIS       4=ITRRES   7.000=ZTR
    0.500=DZAIR    0.600=BACFAC   1.000=SWT      0.150=RDERR 
                                                 1.000=ERCOF

      ------DURATION MAG CONSTANTS------       -DELAYS & MISC-    -STATIONS-
   -5.200=FMA1    -0.905=FMA2   -1.0300=DMA0         F=LMULT        F=ATTEN
    3.890=FMB1     2.026=FMB2    2.1000=DMA1         T=CODAWT       5=SITE-LET
    0.013=FMZ1     0.013=FMZ2    0.0000=DMA2         F=LJUNK        1=NET-LET
    0.004=FMD1     0.004=FMD2    0.0000=DMZ                         0=COMP-LET
    0.000=FMF1     0.000=FMF2    1.0000=DMGN  
    0.000=FMGN   210.000=FMBRK   0.0027=DMLIN 
   0.0000=DCOF1    0.000=DBRK1        1=LOGA0 
   0.0000=DCOF2    0.000=DBRK2 
   0.0000=ZCOF     0.000=ZBRK  

    --- MAGNITUDE LABELS & COMPONENTS ---
    FMAG1: LABEL=   ALL COMPS=
    FMAG2: LABEL=    NO COMPS=
    XMAG1: LABEL=   ALL  TYPE=ALL  COMPS=
    XMAG2: LABEL=    NO  TYPE=ALL  COMPS=
    FMAG1 MAGSEL=1  FMAG2 MAGSEL=1

 INPUT FILES:
 COMMANDS:    hypinst                                                     
                                                                          
 STATIONS:    /workspace/data/station/stations_hypoinverse_with_das.sta   STATION FORMAT CODE= 3
 DELAYS:                                                                   
 ATTENUATIONS:                                                             
 CAL FACTORS:                                                              
 FMAG CORRECT:                                                             
 XMAG CORRECT:                                                             

 PHASES:       hypoinverse_input.arc                                       
        PHASE FORMAT CODE= 3, TERMINATOR FORMAT CODE=1
 HOMOGENEOUS LAYER CRUST 1:  /workspace/data/velocity/jma_crh/JMA2001A_P.crh             
 HOMOGENEOUS LAYER CRUST 2:  /workspace/data/velocity/jma_crh/JMA2001A_S.crh             

 OUTPUT FILES: (T IF APPENDED TO)
 (F) PRINTOUT:    hypoinverse_run.prt                                         
 (F) SUMMARY:     hypoinverse_run.sum                                         FORMAT CODE=1
 (F) ARCHIVE:     hypoinverse_run_out.arc                                     ARCHIVE FORMAT CODE= 1

1 15 FEB 2020,  0:27  SEQUENCE NO.    1, ID NO.   3166229
                                                        ADJUSTMENTS (KM)
  I ORIGIN   LAT N     LON W     Z   NWR  RMS    DT    DLAT   DLON    DZ    RR NF MOD
  1 11.16  35 36.98  139E48.45 10.00  74 2.87 -1.450 -8.873  0.777  0.000 8.907 3 JMA
  2  9.71  35 32.19  139E47.93 10.00  74 1.17 -0.239 -2.050  0.060  0.000 2.051 3 JMA
 FREE DEPTH
  3  9.47  35 31.09  139E47.89 10.00  74 1.07 -0.135  0.736 -0.254 15.47715.496 4 JMA
 BEGIN MAIN DISTANCE WEIGHTING
 BEGIN RESIDUAL WEIGHTING
  4  9.34  35 31.48  139E48.06 25.48  72 0.73 -0.480 -1.321 -0.558  0.548 1.535 4 JMA
  5  8.86  35 30.77  139E48.43 26.03  70 0.32 -0.022 -0.572  0.195 -0.699 0.924 4 JMA
  6  8.83  35 30.46  139E48.30 25.33  70 0.28 -0.013 -0.066  0.057 -0.099 0.132 4 JMA
  7  8.82  35 30.43  139E48.27 25.23  70 0.28 -0.009 -0.014  0.025  0.021 0.036 4 JMA
  8  8.81  35 30.42  139E48.25 25.25  70 0.28 -0.003  0.002  0.017  0.011 0.020 4 JMA

              EIGENVALUES
     (10.794  1.374  1.227  0.555)
      EIGENVECTORS OF ADJUSTMENT                COVARIANCE             ERRORS
 OT  (-0.996 -0.022  0.024  0.081) (   0.003  -0.003  -0.003  -0.026)   0.056
 LAT (-0.031  0.976 -0.206 -0.061) (  -0.003   0.055   0.004   0.016)   0.235
 LON (-0.024 -0.210 -0.976 -0.059) (  -0.003   0.004   0.068   0.015)   0.260
 Z   (-0.078 -0.049  0.073 -0.993) (  -0.026   0.016   0.015   0.326)   0.571
 ERROR ELLIPSE: <SERR AZ DIP>-<   0.57 315 85>-<   0.26 102  4>-<   0.23 192  2>
 ------------------------------------------------------------------------------------
 YEAR MO DA  --ORIGIN--  --LAT N-  --LON W--  DEPTH-M RMS   ERH   ERZ  XMAG1 FMAG1 PMAG GEOID-DEP
 2020-02-15  0027  8.81  35 30.42  139E48.25  25.25  0.28  0.26  0.57                      25.25
                                                                                          SOURCE
 NSTA NPHS  DMIN MODEL GAP ITR NFM NWR NWS NVR REMRKS-AVH  N.XMG-XMMAD-T   N.FMG-FMMAD-T  L F X
   74   74  11.6  JMAS  30   8   0  70  17  74                                                 

 XMAG2-N.XMG2-XMMAD-T-S  FMAG2-N.FMG2-FMMAD-T-S  PREF.MAG-N.PMAG-PRMAD-T DEPDAT NS ZT TYP
                                                                              0  0  M CRH
 REGION=                          

 STA NET COM L CR DIST AZM  AN P/S WT   SEC (TOBS -TCAL -DLY  =RES)  WT   SR  INFO  CAL  DUR-W-FMAG-T -AMP-U-PER-W-XMAG-T DE
 N.KOTH  HHZ   Z  11.6   3 152  P  1  13.16  4.35  4.57 0.00 -0.22  1.29     0.034                                           
        S                       S     16.46  7.65  7.81 0.00 -0.16  2.58S    0.543                                           
 N.FUTH  HHZ   Z  18.6 165 138  P  1  13.44  4.63  5.15 0.00 -0.52* 1.24     0.022                                           
        S                       S  1  17.28  8.47  8.81 0.00 -0.34  1.29S    0.107                                           
 N.YFTH  HHZ   Z  22.7 229 132  P  1  14.94  6.13  5.57 0.00  0.56* 1.16     0.023                                           
 N.YKHH  HHZ   Z  25.8 269 127  P  1  14.55  5.74  5.92 0.00 -0.18  1.29     0.036                                           
        S                       S  1  18.83 10.02 10.13 0.00 -0.11  1.29S    0.093                                           
 N.HYMH  HHZ   Z  32.3 213 119  P  1  15.41  6.60  6.71 0.00 -0.11  1.29     0.028                                           
        S                       S     20.47 11.66 11.48 0.00  0.18  2.58S    0.276                                           
 YOKOSK  HHZ   Z  33.6 203 118  P  1  15.98  7.17  6.88 0.00  0.29  1.29     0.026                                           
        S                       S  1  22.54 13.73 11.77 0.00  1.96* 0.00S    0.000                                           
 N.YSKH  HHZ   Z  34.3 197 117  P  1  15.95  7.14  6.96 0.00  0.18  1.29     0.026                                           
        S                       S  1  22.72 13.91 11.91 0.00  2.00* 0.00S    0.000                                           
 N.FCHH  HHZ   Z  34.4 299 117  P  1  15.52  6.71  6.98 0.00 -0.27  1.29     0.046                                           
        S                       S  1  20.89 12.08 11.94 0.00  0.14  1.29S    0.090                                           
 D0698   HHZ   Z  35.2  89 116  P  3  16.05  7.24  7.09 0.55 -0.40  0.13     0.000                                           
 D0687   HHZ   Z  35.2  89 116  P  3  16.12  7.31  7.09 0.56 -0.34  0.13     0.000                                           
 D0636   HHZ   Z  35.2  89 116  P  3  16.13  7.32  7.09 0.58 -0.35  0.13     0.000                                           
 D0643   HHZ   Z  35.2  89 116  P  3  16.13  7.32  7.09 0.58 -0.35  0.13     0.000                                           
 D0531   HHZ   Z  35.2  89 116  P  3  16.16  7.35  7.09 0.63 -0.37  0.13     0.000                                           
 D0578   HHZ   Z  35.2  89 116  P  3  16.17  7.36  7.09 0.61 -0.34  0.13     0.000                                           
 D0555   HHZ   Z  35.2  89 116  P  3  16.18  7.37  7.09 0.62 -0.34  0.13     0.000                                           
 D0588   HHZ   Z  35.2  89 116  P  3  16.19  7.38  7.09 0.61 -0.32  0.13     0.000                                           
 D0512   HHZ   Z  35.2  89 116  P  3  16.20  7.39  7.09 0.64 -0.34  0.13     0.000                                           
 D0446   HHZ   Z  35.2  89 116  P  3  16.22  7.41  7.09 0.68 -0.36  0.13     0.000                                           
 D0482   HHZ   Z  35.2  89 116  P  3  16.22  7.41  7.09 0.66 -0.34  0.13     0.000                                           
 D0437   HHZ   Z  35.2  89 116  P  3  16.23  7.42  7.09 0.68 -0.35  0.13     0.000                                           
 D0399   HHZ   Z  35.2  89 116  P  3  16.25  7.44  7.09 0.70 -0.35  0.13     0.000                                           
 D0336   HHZ   Z  35.2  89 116  P  3  16.28  7.47  7.09 0.73 -0.35  0.13     0.000                                           
 D0338   HHZ   Z  35.2  89 116  P  3  16.29  7.48  7.09 0.73 -0.34  0.13     0.000                                           
 D0373   HHZ   Z  35.2  89 116  P  3  16.29  7.48  7.09 0.71 -0.32  0.13     0.000                                           
 D0210   HHZ   Z  35.2  89 116  P  3  16.32  7.51  7.09 0.80 -0.38  0.13     0.000                                           
 D0226   HHZ   Z  35.2  89 116  P  3  16.33  7.52  7.09 0.79 -0.36  0.13     0.000                                           
 D0266   HHZ   Z  35.2  89 116  P  3  16.33  7.52  7.09 0.77 -0.34  0.13     0.000                                           
 D0257   HHZ   Z  35.2  89 116  P  3  16.35  7.54  7.09 0.77 -0.32  0.13     0.000                                           
 D0293   HHZ   Z  35.2  89 116  P  3  16.35  7.54  7.09 0.75 -0.30  0.13     0.000                                           
 N.ICHH  HHZ   Z  35.4 108 116  P     16.34  7.53  7.11 0.00  0.42  2.58     0.103                                           
 N.SHMH SHHZ   Z  37.6  31 115  S     21.62 12.81 12.68 0.00  0.13  2.58S    0.283                                           
 N.CBAH  HHZ   Z  39.9  83 112  P  1  16.29  7.48  7.71 0.00 -0.23  1.29     0.031                                           
        S                       S  1  22.28 13.47 13.20 0.00  0.27  1.29S    0.067                                           
 N.YROH  HHZ   Z  40.0 127 112  P  1  16.20  7.39  7.73 0.00 -0.34  1.29     0.026                                           
        S                       S     22.00 13.19 13.22 0.00 -0.03  2.58S    0.247                                           
 N.TKRH  HHZ   Z  40.9 324 111  P  1  16.79  7.98  7.84 0.00  0.14  1.29     0.051                                           
        S                       S  1  22.74 13.93 13.42 0.00  0.51* 1.26S    0.085                                           
 CHONAN  HHZ   Z  41.5 109 111  P  1  17.38  8.57  7.92 0.00  0.65* 0.85     0.012                                           
        S                       S  1  25.09 16.28 13.56 0.00  2.72* 0.00S    0.000                                           
 N.ATGH  HHZ   Z  42.4 255 110  P  1  16.88  8.07  8.06 0.00  0.01  1.29     0.047                                           
        S                       S  1  23.13 14.32 13.79 0.00  0.53* 1.23S    0.075                                           
 N.KMWH  HHZ   Z  43.4 160 109  P     16.63  7.82  8.19 0.00 -0.37  2.58     0.105                                           
        S                       S     22.82 14.01 14.02 0.00 -0.01  2.58S    0.218                                           
 N.IWTH  HHZ   Z  47.2 353 107  P  1  17.50  8.69  8.72 0.00 -0.03  1.29     0.053                                           
 N.KMSH  HHZ   Z  53.7 149 103  P     18.96 10.15  9.63 0.00  0.52* 2.48     0.118                                           
 N.NRTH  HHZ   Z  57.4  51 102  P  1  18.83 10.02 10.15 0.00 -0.13  1.27     0.046                                           
        S                       S  1  25.91 17.10 17.40 0.00 -0.30  1.27S    0.073                                           
 N.ST6H  HHZ   Z  59.8 221 101  P     19.11 10.30 10.50 0.00 -0.20  2.52     0.182                                           
 N.CKRH  HHZ   Z  60.9 167 101  P     19.41 10.60 10.66 0.00 -0.06  2.50     0.134                                           
 N.HSNH  HHZ   Z  64.8  81  99  P  1  19.61 10.80 11.22 0.00 -0.42  1.22     0.040                                           
        S                       S  1  27.79 18.98 19.24 0.00 -0.26  1.22S    0.067                                           
 N.EDSH  HHZ   Z  68.6  43  98  P  1  20.47 11.66 11.77 0.00 -0.11  1.18     0.046                                           
        S                       S  1  29.16 20.35 20.19 0.00  0.16  1.18S    0.071                                           
 ODAWA2  HHZ   Z  70.6 248  98  P  1  20.10 11.29 12.06 0.00 -0.77* 0.29     0.003                                           
        S                       S  1  28.97 20.16 20.69 0.00 -0.53* 1.10S    0.072                                           
 N.NGRH  HHZ   Z  74.4 308  97  P  1  21.31 12.50 12.61 0.00 -0.11  1.11     0.056                                           
        S                       S  1  31.28 22.47 21.65 0.00  0.82* 0.14S    0.001                                           
 E.TSK   HHZ   Z  83.0  19  96  P  1  22.69 13.88 13.86 0.00  0.02  0.97     0.037                                           
 N.TBYH  HHZ   Z  85.1 345  96  P  1  23.08 14.27 14.17 0.00  0.10  0.94     0.039                                           
        S                       S  1  33.45 24.64 24.33 0.00  0.31  0.94S    0.061                                           
 N.CH2H  HHZ   Z  95.7  74  95  P     24.29 15.48 15.71 0.00 -0.23  1.46     0.070                                           
 RYOKAM  HHZ   Z  99.8 306  94  P     24.74 15.93 16.31 0.00 -0.38  1.30     0.084                                           
 ASHIKA  HHZ   Z 107.1 343  94  P  1  26.22 17.41 17.38 0.00  0.03  0.50     0.012                                           
 N.KWKH  HHZ   Z 121.9 296  93  P  1  28.58 19.77 19.53 0.00  0.24  0.24     0.002                                           
 N.MOTH  HHZ   Z 122.2  17  93  P  1  28.06 19.25 19.58 0.00 -0.33  0.23     0.002                                           
 N.ASOH  HHZ   Z 128.8 347  93  P  1  29.41 20.60 20.55 0.00  0.05  0.14     0.000                                           
 E.OKY   HHZ   Z 129.4 257  93  P  1  28.34 19.53 20.63 0.00 -1.10* 0.00     0.000                                           
 *** SKIP BAD INPUT ARCHIVE CARD:
 202002150101012535 5203139E307310.00
1 15 FEB 2020,  1:01  SEQUENCE NO.    2, ID NO.   3166244
                                                        ADJUSTMENTS (KM)
  I ORIGIN   LAT N     LON W     Z   NWR  RMS    DT    DLAT   DLON    DZ    RR NF MOD
  1  2.25  35 56.04  139E43.79 10.00  58 5.33 -2.377  1.426  4.005  0.000 4.252 3 JMA
 FREE DEPTH
 DEPTH ADJUSTMENT DAMPED
  2 -0.13  35 56.81  139E41.12 10.00  58 4.34 -0.775 -0.604 -3.030 17.44917.721 4 JMA
 DEPTH ADJUSTMENT DAMPED
  3 -0.90  35 56.48  139E43.14 27.45  58 3.37 -4.173 -1.502  4.278 18.18818.745 4 JMA
 BEGIN MAIN DISTANCE WEIGHTING
 BEGIN RESIDUAL WEIGHTING
  4 -5.08  35 55.67  139E40.29 45.64  57 3.12 -1.123 -1.557  2.263 28.74528.876 4 JMA
  5 -6.20  35 54.83  139E38.78 74.38  47 0.30 -0.491 -0.193  0.843  2.753 2.886 4 JMA
  6 -6.69  35 54.73  139E38.22 77.14  48 0.23 -0.061  0.037  0.232  0.298 0.380 4 JMA
  7 -6.75  35 54.75  139E38.06 77.43  48 0.22 -0.005 -0.032  0.099 -0.018 0.106 4 JMA
  8 -6.76  35 54.73  139E38.00 77.42  48 0.22  0.005 -0.039  0.055 -0.070 0.097 4 JMA
  9 -6.75  35 54.71  139E37.96 77.35  48 0.21  0.004 -0.042  0.024 -0.046 0.067 4 JMA
 10 -6.75  35 54.69  139E37.95 77.30  48 0.21  0.002 -0.036  0.055 -0.031 0.072 4 JMA

              EIGENVALUES
     ( 8.070  0.527  0.495  0.361)
      EIGENVECTORS OF ADJUSTMENT                COVARIANCE             ERRORS
 OT  (-0.989 -0.015  0.016 -0.144) (   0.012  -0.002   0.001  -0.075)   0.109
 LAT ( 0.006 -0.196  0.977  0.088) (  -0.002   0.280  -0.006   0.022)   0.529
 LON ( 0.008 -0.980 -0.199  0.022) (   0.001  -0.006   0.248   0.007)   0.498
 Z   (-0.145  0.037 -0.080  0.985) (  -0.075   0.022   0.007   0.510)   0.714
 ERROR ELLIPSE: <SERR AZ DIP>-<   0.72 345 84>-<   0.53 191  4>-<   0.50 102  2>
 ------------------------------------------------------------------------------------
 YEAR MO DA  --ORIGIN--  --LAT N-  --LON W--  DEPTH-M RMS   ERH   ERZ  XMAG1 FMAG1 PMAG GEOID-DEP
 2020-02-15  0100 53.25  35 54.69  139E37.95  77.30  0.21  0.53  0.71                      77.30
                                                                                          SOURCE
 NSTA NPHS  DMIN MODEL GAP ITR NFM NWR NWS NVR REMRKS-AVH  N.XMG-XMMAD-T   N.FMG-FMMAD-T  L F X
   58   58   9.4  JMAS  60  10   0  48  22  58                                                 

 XMAG2-N.XMG2-XMMAD-T-S  FMAG2-N.FMG2-FMMAD-T-S  PREF.MAG-N.PMAG-PRMAD-T DEPDAT NS ZT TYP
                                                                              0  0  M CRH
 REGION=                          

 STA NET COM L CR DIST AZM  AN P/S WT   SEC (TOBS -TCAL -DLY  =RES)  WT   SR  INFO  CAL  DUR-W-FMAG-T -AMP-U-PER-W-XMAG-T DE
 N.IWTH  HHZ   Z   9.4  78 172  P     64.25 11.00 11.12 0.00 -0.12  1.75     0.067                                           
        S                       S     72.64 19.39 19.35 0.00  0.04  1.75S    0.190                                           
 N.TKRH  HHZ   Z  14.9 217 167  P     64.94 11.69 11.24 0.00  0.45  1.50     0.052                                           
        S                       S     73.84 20.59 19.56 0.00  1.03* 0.00S    0.000                                           
 N.HDKH  HHZ   Z  22.4 267 161  P     64.68 11.43 11.49 0.00 -0.06  1.75     0.078                                           
        S                       S     73.32 20.07 20.00 0.00  0.07  1.75S    0.185                                           
 N.YMIH  HHZ   Z  23.5 312 160  P     64.81 11.56 11.54 0.00  0.02  1.75     0.080                                           
        S                       S     73.38 20.13 20.07 0.00  0.06  1.75S    0.178                                           
 N.FCHH  HHZ   Z  32.1 208 154  P     65.16 11.91 11.95 0.00 -0.04  1.75     0.111                                           
        S                       S  1  73.61 20.36 20.79 0.00 -0.43  0.79S    0.048                                           
 N.HHNH  HHZ   Z  32.9 261 153  P     65.57 12.32 11.99 0.00  0.33  1.75     0.102                                           
        S                       S     74.64 21.39 20.86 0.00  0.53* 0.96S    0.060                                           
 N.KOTH  HHZ   Z  37.1 153 150  P     65.44 12.19 12.23 0.00 -0.04  1.75     0.134                                           
        S                       S     74.19 20.94 21.28 0.00 -0.34  1.75S    0.273                                           
 N.TBYH  HHZ   Z  37.8 348 150  P  1  65.31 12.06 12.27 0.00 -0.21  0.88     0.031                                           
        S                       S  1  74.24 20.99 21.36 0.00 -0.37  0.87S    0.053                                           
 N.KWTH  HHZ   Z  38.2 306 149  P  1  65.46 12.21 12.30 0.00 -0.09  0.88     0.029                                           
        S                       S  1  74.61 21.36 21.40 0.00 -0.04  0.88S    0.050                                           
 N.ISGH  HHZ   Z  39.0  55 149  P  1  65.56 12.31 12.35 0.00 -0.04  0.88     0.034                                           
        S                       S     74.86 21.61 21.49 0.00  0.12  1.75S    0.249                                           
 E2DDR   HHZ   Z  41.4 285 147  P  1  65.86 12.61 12.50 0.00  0.11  0.88     0.031                                           
