 HYPOINVERSE 2000
 6/2014 VERSION 1.40 (geoid depth possible)                            
 RUN ON Thu Jan 29 04:25:12 2026      RUN LABEL= 
 PROCESSING DOMAIN=NC  PROCESSING VERSION=01


 TEST PARAMETERS:
   -ITERATION AND CONVERGENCE-     -WEIGHTING AND ERRORS-     -MISCELLANEOUS-
       20=ITRLIM   0.900=DAMP    50.000=DISCUT   0.160=RMSCUT       4=MINSTA
    0.040=DQUIT    0.001=DRQT     1.000=DISW1    1.500=RMSW1        0=NET
    7.000=DXFIX    0.012=EIGTOL   3.000=DISW2    3.000=RMSW2 
   30.000=DZMAX    0.020=RBACK        4=ITRDIS       4=ITRRES   7.000=ZTR
    0.500=DZAIR    0.600=BACFAC   1.000=SWT      0.150=RDERR 
                                                 1.000=ERCOF

      ------DURATION MAG CONSTANTS------       -DELAYS & MISC-    -STATIONS-
   -5.200=FMA1    -0.905=FMA2   -1.0300=DMA0         F=LMULT        F=ATTEN
    3.890=FMB1     2.026=FMB2    2.1000=DMA1         T=CODAWT       5=SITE-LET
    0.013=FMZ1     0.013=FMZ2    0.0000=DMA2         F=LJUNK        1=NET-LET
    0.004=FMD1     0.004=FMD2    0.0000=DMZ                         3=COMP-LET
    0.000=FMF1     0.000=FMF2    1.0000=DMGN  
    0.000=FMGN   210.000=FMBRK   0.0027=DMLIN 
   0.0000=DCOF1    0.000=DBRK1        1=LOGA0 
   0.0000=DCOF2    0.000=DBRK2 
   0.0000=ZCOF     0.000=ZBRK  

    --- MAGNITUDE LABELS & COMPONENTS ---
    FMAG1: LABEL=   ALL COMPS=
    FMAG2: LABEL=    NO COMPS=
    XMAG1: LABEL=   ALL  TYPE=ALL  COMPS=
    XMAG2: LABEL=    NO  TYPE=ALL  COMPS=
    FMAG1 MAGSEL=1  FMAG2 MAGSEL=1

 INPUT FILES:
 COMMANDS:    hypinst                                                     
                                                                          
 STATIONS:    stations_synth.sta                                          STATION FORMAT CODE= 3
 DELAYS:                                                                   
 ATTENUATIONS:                                                             
 CAL FACTORS:                                                              
 FMAG CORRECT:                                                             
 XMAG CORRECT:                                                             

 PHASES:       hypoinverse_input.arc                                       
        PHASE FORMAT CODE= 3, TERMINATOR FORMAT CODE=1

 OUTPUT FILES: (T IF APPENDED TO)
 (F) PRINTOUT:    hypoinverse_run.prt                                         
 (F) SUMMARY:     hypoinverse_run.sum                                         FORMAT CODE=1
 (F) ARCHIVE:     hypoinverse_run_out.arc                                     ARCHIVE FORMAT CODE= 1

1  1 JAN 2026,  0:00  SEQUENCE NO.    1, ID NO.         1
                                                        ADJUSTMENTS (KM)
  I ORIGIN   LAT N     LON W     Z   NWR  RMS    DT    DLAT   DLON    DZ    RR NF MOD
  1 -1.95  35  1.65  140E 1.67  0.50 220 1.95  1.784 -0.249 -0.513  0.000 0.570 3 CRE
 FREE DEPTH
  2 -0.17  35  1.52  140E 2.01  0.50 220 0.15  0.161 -0.305 -0.091 -0.177 0.364 4 CRE
  3 -0.01  35  1.35  140E 2.07  0.32 220 0.01  0.007  0.001  0.043 -0.023 0.049 4 CRE
 BEGIN MAIN DISTANCE WEIGHTING
 BEGIN RESIDUAL WEIGHTING
  4  0.00  35  1.35  140E 2.04  0.30 220 0.00 -0.000 -0.006 -0.003 -0.002 0.007 4 CRE
  5  0.00  35  1.35  140E 2.04  0.30 220 0.00  0.001  0.014  0.002  0.002 0.014 4 CRE

              EIGENVALUES
     (18.036  1.950  1.683  1.245)
      EIGENVECTORS OF ADJUSTMENT                COVARIANCE             ERRORS
 OT  (-0.985  0.031  0.001 -0.168) (   0.000   0.000   0.002  -0.001)   0.022
 LAT ( 0.003  0.008  1.000 -0.008) (   0.000   0.008   0.000  -0.000)   0.089
 LON ( 0.167  0.365 -0.011 -0.916) (   0.002   0.000   0.013  -0.003)   0.114
 Z   (-0.033  0.930 -0.005  0.365) (  -0.001  -0.000  -0.003   0.007)   0.084
 ERROR ELLIPSE: <SERR AZ DIP>-<   0.12  91 21>-<   0.09   0  0>-<   0.08 271 68>
 ------------------------------------------------------------------------------------
 YEAR MO DA  --ORIGIN--  --LAT N-  --LON W--  DEPTH-G RMS   ERH   ERZ  XMAG1 FMAG1 PMAG GEOID-DEP
 2026-01-01  0000  0.00  35  1.35  140E 2.04   0.30  0.00  0.11  0.07                       0.30
                                                                                          SOURCE
 NSTA NPHS  DMIN MODEL GAP ITR NFM NWR NWS NVR REMRKS-AVH  N.XMG-XMMAD-T   N.FMG-FMMAD-T  L F X
  220  220   0.1  CRES 205   5   0 220 110 220                                                 

 XMAG2-N.XMG2-XMMAD-T-S  FMAG2-N.FMG2-FMMAD-T-S  PREF.MAG-N.PMAG-PRMAD-T DEPDAT NS ZT TYP
                                                                              0  0  G CRE
 REGION=                          

 STA NET COM L CR DIST AZM  AN P/S WT   SEC (TOBS -TCAL -DLY  =RES)  WT   SR  INFO  CAL  DUR-W-FMAG-T -AMP-U-PER-W-XMAG-T DE
 G0006   HHZ   Z   0.1 273 160  P      0.05  0.05  0.05 0.00  0.00  3.21     0.120                                           
        S                       S      0.09  0.09  0.09 0.00  0.00  3.21S    0.202                                           
 G0003   HHZ   Z   0.5 193 120  P      0.09  0.09  0.09 0.00  0.00  3.21     0.208                                           
        S                       S      0.17  0.17  0.16 0.00  0.01  3.21S    0.336                                           
 G0009   HHZ   Z   0.5 348 120  P      0.09  0.09  0.09 0.00  0.00  3.21     0.206                                           
        S                       S      0.17  0.17  0.17 0.00  0.00  3.21S    0.332                                           
 D0031   HHZ   Z   0.6 271  89  P  3   0.10  0.10  0.09 0.00  0.01  0.80     0.002                                           
 D0030   HHZ   Z   0.6 271  90  P  3   0.10  0.10  0.09 0.00  0.01  0.80     0.002                                           
 D0032   HHZ   Z   0.6 271  88  P  3   0.10  0.10  0.09 0.00  0.01  0.80     0.002                                           
 D0029   HHZ   Z   0.6 271  91  P  3   0.10  0.10  0.09 0.00  0.01  0.80     0.002                                           
 D0033   HHZ   Z   0.6 271  87  P  3   0.10  0.10  0.09 0.00  0.01  0.80     0.002                                           
 D0028   HHZ   Z   0.6 271  92  P  3   0.10  0.10  0.09 0.00  0.01  0.80     0.002                                           
 D0034   HHZ   Z   0.6 271  86  P  3   0.10  0.10  0.09 0.00  0.01  0.80     0.002                                           
 D0027   HHZ   Z   0.6 271  93  P  3   0.10  0.10  0.09 0.00  0.01  0.80     0.002                                           
 D0035   HHZ   Z   0.6 271  85  P  3   0.10  0.10  0.09 0.00  0.01  0.80     0.002                                           
 D0026   HHZ   Z   0.6 271  94  P  3   0.10  0.10  0.09 0.00  0.01  0.80     0.002                                           
 D0036   HHZ   Z   0.6 271  85  P  3   0.10  0.10  0.09 0.00  0.01  0.80     0.002                                           
 D0025   HHZ   Z   0.6 271  95  P  3   0.10  0.10  0.09 0.00  0.01  0.80     0.002                                           
 D0037   HHZ   Z   0.6 271  84  P  3   0.10  0.10  0.09 0.00  0.01  0.80     0.002                                           
 D0024   HHZ   Z   0.6 271  96  P  3   0.10  0.10  0.09 0.00  0.01  0.80     0.002                                           
 D0038   HHZ   Z   0.6 271  83  P  3   0.10  0.10  0.09 0.00  0.01  0.80     0.002                                           
 D0023   HHZ   Z   0.6 271  97  P  3   0.10  0.10  0.09 0.00  0.01  0.80     0.002                                           
 D0039   HHZ   Z   0.6 271  82  P  3   0.10  0.10  0.10 0.00  0.00  0.80     0.002                                           
 D0022   HHZ   Z   0.6 271  98  P  3   0.10  0.10  0.10 0.00  0.00  0.80     0.002                                           
 D0040   HHZ   Z   0.6 271  81  P  3   0.10  0.10  0.10 0.00  0.00  0.80     0.002                                           
 D0021   HHZ   Z   0.6 271  99  P  3   0.10  0.10  0.10 0.00  0.00  0.80     0.002                                           
 D0041   HHZ   Z   0.6 271  80  P  3   0.10  0.10  0.10 0.00  0.00  0.80     0.002                                           
 D0020   HHZ   Z   0.6 271 100  P  3   0.10  0.10  0.10 0.00  0.00  0.80     0.002                                           
 D0042   HHZ   Z   0.6 271  79  P  3   0.10  0.10  0.10 0.00  0.00  0.80     0.002                                           
 D0019   HHZ   Z   0.6 271 101  P  3   0.10  0.10  0.10 0.00  0.00  0.80     0.002                                           
 D0043   HHZ   Z   0.6 271  78  P  3   0.10  0.10  0.10 0.00  0.00  0.80     0.003                                           
 D0018   HHZ   Z   0.6 271 102  P  3   0.10  0.10  0.10 0.00  0.00  0.80     0.002                                           
 D0044   HHZ   Z   0.6 271  77  P  3   0.10  0.10  0.10 0.00  0.00  0.80     0.003                                           
 D0017   HHZ   Z   0.6 271 103  P  3   0.10  0.10  0.10 0.00  0.00  0.80     0.002                                           
 D0045   HHZ   Z   0.6 271  76  P  3   0.10  0.10  0.10 0.00  0.00  0.80     0.003                                           
 D0016   HHZ   Z   0.6 271 103  P  3   0.10  0.10  0.10 0.00  0.00  0.80     0.002                                           
 D0046   HHZ   Z   0.6 271  75  P  3   0.10  0.10  0.10 0.00  0.00  0.80     0.003                                           
 D0015   HHZ   Z   0.6 271 104  P  3   0.10  0.10  0.10 0.00  0.00  0.80     0.002                                           
 D0047   HHZ   Z   0.6 271  74  P  3   0.10  0.10  0.10 0.00  0.00  0.80     0.003                                           
 D0014   HHZ   Z   0.6 271 105  P  3   0.10  0.10  0.10 0.00  0.00  0.80     0.002                                           
 D0048   HHZ   Z   0.6 271  73  P  3   0.10  0.10  0.10 0.00  0.00  0.80     0.003                                           
 D0013   HHZ   Z   0.6 271 106  P  3   0.10  0.10  0.10 0.00  0.00  0.80     0.002                                           
 D0049   HHZ   Z   0.6 271  72  P  3   0.10  0.10  0.10 0.00  0.00  0.80     0.003                                           
 D0012   HHZ   Z   0.6 271 107  P  3   0.10  0.10  0.10 0.00  0.00  0.80     0.002                                           
 D0050   HHZ   Z   0.6 271  72  P  3   0.10  0.10  0.10 0.00  0.00  0.80     0.003                                           
 D0011   HHZ   Z   0.6 271 108  P  3   0.10  0.10  0.10 0.00  0.00  0.80     0.002                                           
 D0051   HHZ   Z   0.6 271  71  P  3   0.10  0.10  0.10 0.00  0.00  0.80     0.003                                           
 D0010   HHZ   Z   0.6 271 109  P  3   0.10  0.10  0.10 0.00  0.00  0.80     0.002                                           
 D0052   HHZ   Z   0.6 271  70  P  3   0.10  0.10  0.10 0.00  0.00  0.80     0.003                                           
 D0009   HHZ   Z   0.6 271 110  P  3   0.10  0.10  0.10 0.00  0.00  0.80     0.002                                           
 D0053   HHZ   Z   0.6 271  69  P  3   0.10  0.10  0.10 0.00  0.00  0.80     0.003                                           
 D0008   HHZ   Z   0.6 271 110  P  3   0.10  0.10  0.10 0.00  0.00  0.80     0.002                                           
 D0054   HHZ   Z   0.6 271  68  P  3   0.10  0.10  0.10 0.00  0.00  0.80     0.004                                           
 D0007   HHZ   Z   0.6 271 111  P  3   0.10  0.10  0.10 0.00  0.00  0.80     0.002                                           
 D0055   HHZ   Z   0.6 271  67  P  3   0.10  0.10  0.10 0.00  0.00  0.80     0.004                                           
 D0006   HHZ   Z   0.6 271 112  P  3   0.10  0.10  0.10 0.00  0.00  0.80     0.002                                           
 D0056   HHZ   Z   0.6 271  67  P  3   0.10  0.10  0.10 0.00  0.00  0.80     0.004                                           
 D0005   HHZ   Z   0.6 271 113  P  3   0.10  0.10  0.10 0.00  0.00  0.80     0.002                                           
 D0057   HHZ   Z   0.6 271  66  P  3   0.10  0.10  0.10 0.00  0.00  0.80     0.004                                           
 D0004   HHZ   Z   0.6 271 114  P  3   0.10  0.10  0.10 0.00  0.00  0.80     0.002                                           
 D0058   HHZ   Z   0.6 271  65  P  3   0.10  0.10  0.10 0.00  0.00  0.80     0.004                                           
 D0003   HHZ   Z   0.6 271 115  P  3   0.11  0.11  0.10 0.00  0.01  0.80     0.002                                           
 D0059   HHZ   Z   0.6 271  64  P  3   0.11  0.11  0.10 0.00  0.01  0.80     0.004                                           
 D0002   HHZ   Z   0.6 271 115  P  3   0.11  0.11  0.11 0.00  0.00  0.80     0.002                                           
 D0060   HHZ   Z   0.6 271  63  P  3   0.11  0.11  0.11 0.00  0.00  0.80     0.004                                           
 D0001   HHZ   Z   0.6 271 116  P  3   0.11  0.11  0.11 0.00  0.00  0.80     0.002                                           
 D0061   HHZ   Z   0.6 271  63  P  3   0.11  0.11  0.11 0.00  0.00  0.80     0.004                                           
 G0005   HHZ   Z   0.6 271 116  P      0.11  0.11  0.11 0.00  0.00  3.21     0.038                                           
 D0062   HHZ   Z   0.6 271  62  P  3   0.11  0.11  0.11 0.00  0.00  0.80     0.005                                           
 D0063   HHZ   Z   0.6 271  61  P  3   0.11  0.11  0.11 0.00  0.00  0.80     0.005                                           
 D0064   HHZ   Z   0.6 271  60  P  3   0.11  0.11  0.11 0.00  0.00  0.80     0.005                                           
 D0065   HHZ   Z   0.6 271  60  P  3   0.11  0.11  0.11 0.00  0.00  0.80     0.005                                           
 D0066   HHZ   Z   0.6 271  59  P  3   0.11  0.11  0.11 0.00  0.00  0.80     0.005                                           
 D0067   HHZ   Z   0.6 271  58  P  3   0.11  0.11  0.11 0.00  0.00  0.80     0.005                                           
 D0068   HHZ   Z   0.6 271  57  P  3   0.11  0.11  0.11 0.00  0.00  0.80     0.005                                           
 D0069   HHZ   Z   0.6 271  57  P  3   0.11  0.11  0.11 0.00  0.00  0.80     0.006                                           
 D0070   HHZ   Z   0.6 271  56  P  3   0.11  0.11  0.11 0.00  0.00  0.80     0.006                                           
 D0071   HHZ   Z   0.6 271  55  P  3   0.12  0.12  0.11 0.00  0.01  0.80     0.006                                           
 D0072   HHZ   Z   0.6 271  55  P  3   0.12  0.12  0.12 0.00  0.00  0.80     0.006                                           
 D0073   HHZ   Z   0.6 271  54  P  3   0.12  0.12  0.12 0.00  0.00  0.80     0.006                                           
 D0074   HHZ   Z   0.6 271  54  P  3   0.12  0.12  0.12 0.00  0.00  0.80     0.006                                           
 D0075   HHZ   Z   0.6 271  53  P  3   0.12  0.12  0.12 0.00  0.00  0.80     0.006                                           
 D0076   HHZ   Z   0.6 271  52  P  3   0.12  0.12  0.12 0.00  0.00  0.80     0.006                                           
 D0077   HHZ   Z   0.6 271  52  P  3   0.12  0.12  0.12 0.00  0.00  0.80     0.007                                           
 D0078   HHZ   Z   0.6 271  51  P  3   0.12  0.12  0.12 0.00  0.00  0.80     0.007                                           
 D0079   HHZ   Z   0.6 271  50  P  3   0.12  0.12  0.12 0.00  0.00  0.80     0.007                                           
 D0080   HHZ   Z   0.6 271  50  P  3   0.12  0.12  0.12 0.00  0.00  0.80     0.007                                           
 D0081   HHZ   Z   0.6 271  49  P  3   0.13  0.13  0.12 0.00  0.01  0.80     0.007                                           
 D0082   HHZ   Z   0.6 271  49  P  3   0.13  0.13  0.13 0.00  0.00  0.80     0.007                                           
 D0083   HHZ   Z   0.6 271  48  P  3   0.13  0.13  0.13 0.00  0.00  0.80     0.007                                           
 D0084   HHZ   Z   0.6 271  48  P  3   0.13  0.13  0.13 0.00  0.00  0.80     0.008                                           
 D0085   HHZ   Z   0.6 271  47  P  3   0.13  0.13  0.13 0.00  0.00  0.80     0.008                                           
 D0086   HHZ   Z   0.6 271  47  P  3   0.13  0.13  0.13 0.00  0.00  0.80     0.008                                           
 D0087   HHZ   Z   0.6 271  46  P  3   0.13  0.13  0.13 0.00  0.00  0.80     0.008                                           
 D0088   HHZ   Z   0.6 271  46  P  3   0.13  0.13  0.13 0.00  0.00  0.80     0.008                                           
 D0089   HHZ   Z   0.6 271  45  P  3   0.13  0.13  0.13 0.00  0.00  0.80     0.008                                           
 D0090   HHZ   Z   0.6 271  45  P  3   0.14  0.14  0.13 0.00  0.01  0.80     0.008                                           
 D0091   HHZ   Z   0.6 271  44  P  3   0.14  0.14  0.14 0.00  0.00  0.80     0.008                                           
 D0092   HHZ   Z   0.6 271  44  P  3   0.14  0.14  0.14 0.00  0.00  0.80     0.009                                           
 D0093   HHZ   Z   0.6 271  43  P  3   0.14  0.14  0.14 0.00  0.00  0.80     0.009                                           
 D0094   HHZ   Z   0.6 271  43  P  3   0.14  0.14  0.14 0.00  0.00  0.80     0.009                                           
 D0095   HHZ   Z   0.6 271  42  P  3   0.14  0.14  0.14 0.00  0.00  0.80     0.009                                           
 D0096   HHZ   Z   0.6 271  42  P  3   0.14  0.14  0.14 0.00  0.00  0.80     0.009                                           
 D0097   HHZ   Z   0.6 271  41  P  3   0.14  0.14  0.14 0.00  0.00  0.80     0.009                                           
 D0098   HHZ   Z   0.6 271  41  P  3   0.14  0.14  0.14 0.00  0.00  0.80     0.009                                           
 D0099   HHZ   Z   0.6 271  41  P  3   0.15  0.15  0.15 0.00  0.00  0.80     0.009                                           
 D0100   HHZ   Z   0.6 271  40  P  3   0.15  0.15  0.15 0.00  0.00  0.80     0.010                                           
 D0101   HHZ   Z   0.6 271  40  P  3   0.15  0.15  0.15 0.00  0.00  0.80     0.010                                           
 D0031  SHHZ   Z   0.6 271  89  S  3   0.17  0.17  0.17 0.00  0.00  0.80S    0.006                                           
 D0030  SHHZ   Z   0.6 271  90  S  3   0.17  0.17  0.17 0.00  0.00  0.80S    0.007                                           
 D0032  SHHZ   Z   0.6 271  88  S  3   0.17  0.17  0.17 0.00  0.00  0.80S    0.006                                           
 D0029  SHHZ   Z   0.6 271  91  S  3   0.17  0.17  0.17 0.00  0.00  0.80S    0.007                                           
 D0033  SHHZ   Z   0.6 271  87  S  3   0.17  0.17  0.17 0.00  0.00  0.80S    0.006                                           
 D0028  SHHZ   Z   0.6 271  92  S  3   0.17  0.17  0.17 0.00  0.00  0.80S    0.007                                           
 D0034  SHHZ   Z   0.6 271  86  S  3   0.17  0.17  0.17 0.00  0.00  0.80S    0.006                                           
 D0027  SHHZ   Z   0.6 271  93  S  3   0.17  0.17  0.17 0.00  0.00  0.80S    0.007                                           
 D0035  SHHZ   Z   0.6 271  85  S  3   0.17  0.17  0.17 0.00  0.00  0.80S    0.006                                           
 D0026  SHHZ   Z   0.6 271  94  S  3   0.17  0.17  0.17 0.00  0.00  0.80S    0.007                                           
 D0036  SHHZ   Z   0.6 271  85  S  3   0.17  0.17  0.17 0.00  0.00  0.80S    0.006                                           
 D0025  SHHZ   Z   0.6 271  95  S  3   0.17  0.17  0.17 0.00  0.00  0.80S    0.007                                           
